{
"type": "FeatureCollection",
"name": "georgian_bay_islands_projected",
"crs": { "type": "name", "properties": { "name": "urn:ogc:def:crs:EPSG::32617" } },
"features": [
{ "type": "Feature", "properties": { "element": "node", "id": 1360077939, "name": "Cockaday Island", "place": "island", "wikidata": "Q22517970", "source": null, "natural": null }, "geometry": { "type": "Point", "coordinates": [ 566255.134292268194258, 5003852.198889928869903 ] } },
{ "type": "Feature", "properties": { "element": "node", "id": 1360673101, "name": "Donaldson Island", "place": "island", "wikidata": "Q22584261", "source": null, "natural": null }, "geometry": { "type": "Point", "coordinates": [ 565542.686934669502079, 5004840.147183164022863 ] } },
{ "type": "Feature", "properties": { "element": "node", "id": 1360673147, "name": "Gauge Islands", "place": "island", "wikidata": null, "source": "NRCan-CanVec-7.0", "natural": null }, "geometry": { "type": "Point", "coordinates": [ 566379.959417315665632, 5005662.685937448404729 ] } },
{ "type": "Feature", "properties": { "element": "node", "id": 1360674859, "name": "Tyrone Island", "place": "island", "wikidata": "Q22377933", "source": null, "natural": null }, "geometry": { "type": "Point", "coordinates": [ 566360.525735058123246, 5005037.470906984992325 ] } },
{ "type": "Feature", "properties": { "element": "node", "id": 1360676112, "name": "Strauss Island", "place": "island", "wikidata": "Q22414676", "source": null, "natural": null }, "geometry": { "type": "Point", "coordinates": [ 565516.296933999634348, 5004435.760070666670799 ] } },
{ "type": "Feature", "properties": { "element": "node", "id": 1360676671, "name": "Ajax Island", "place": "island", "wikidata": "Q22373346", "source": null, "natural": null }, "geometry": { "type": "Point", "coordinates": [ 566711.346570805762894, 5004389.730278991162777 ] } },
{ "type": "Feature", "properties": { "element": "node", "id": 1360676924, "name": "Venus Island", "place": "island", "wikidata": "Q22414834", "source": null, "natural": null }, "geometry": { "type": "Point", "coordinates": [ 565661.933546316577122, 5005102.250328942202032 ] } },
{ "type": "Feature", "properties": { "element": "node", "id": 1360677001, "name": "Bernice Island", "place": "island", "wikidata": "Q22398202", "source": null, "natural": null }, "geometry": { "type": "Point", "coordinates": [ 566060.523364535998553, 5005357.293768864125013 ] } },
{ "type": "Feature", "properties": { "element": "node", "id": 1360677675, "name": "Sherry Island", "place": "island", "wikidata": "Q22612304", "source": null, "natural": null }, "geometry": { "type": "Point", "coordinates": [ 565437.533417600556277, 5004516.96319233905524 ] } },
{ "type": "Feature", "properties": { "element": "node", "id": 1360681748, "name": "Elynor Island", "place": "island", "wikidata": "Q22397634", "source": null, "natural": null }, "geometry": { "type": "Point", "coordinates": [ 565989.473290949128568, 5004842.457687356509268 ] } },
{ "type": "Feature", "properties": { "element": "node", "id": 1360682676, "name": "Leonard Island", "place": "island", "wikidata": "Q22409747", "source": null, "natural": null }, "geometry": { "type": "Point", "coordinates": [ 566647.993367444258183, 5004743.383789169602096 ] } },
{ "type": "Feature", "properties": { "element": "node", "id": 1360684947, "name": "Lumb Island", "place": "island", "wikidata": "Q22603690", "source": null, "natural": null }, "geometry": { "type": "Point", "coordinates": [ 565785.215833064285107, 5004281.943584868684411 ] } },
{ "type": "Feature", "properties": { "element": "way", "id": 121508236, "name": null, "place": null, "wikidata": null, "source": "NRCan-CanVec-7.0", "natural": "wood" }, "geometry": { "type": "Polygon", "coordinates": [ [ [ 566246.846009828150272, 5003758.808059556409717 ], [ 566288.328386078821495, 5003781.661890838295221 ], [ 566312.029539363924414, 5003810.574127752333879 ], [ 566319.38121278223116, 5003834.115922917611897 ], [ 566314.444639289751649, 5003852.385212247259915 ], [ 566307.337758199078962, 5003861.054743620567024 ], [ 566303.879457252915017, 5003876.961885532364249 ], [ 566306.57108046952635, 5003906.59896922763437 ], [ 566305.341785864904523, 5003918.974109463393688 ], [ 566300.763345464249142, 5003921.026110782288015 ], [ 566268.08087634248659, 5003910.285424869507551 ], [ 566260.402206414728425, 5003912.027317390777171 ], [ 566242.442820642725565, 5003926.18318154849112 ], [ 566224.604050909169018, 5003945.351099485531449 ], [ 566207.212632445036434, 5003944.247437393292785 ], [ 566190.396702170022763, 5003927.89538683090359 ], [ 566196.942578786285594, 5003836.670362095348537 ], [ 566203.831473302328959, 5003827.042949897237122 ], [ 566220.838129543582909, 5003813.099237023852766 ], [ 566222.938703665975481, 5003804.555121530778706 ], [ 566213.050347017124295, 5003787.642042726278305 ], [ 566216.321697074803524, 5003779.843422885984182 ], [ 566230.978972599143162, 5003764.419768271036446 ], [ 566246.846009828150272, 5003758.808059556409717 ] ] ] } },
{ "type": "Feature", "properties": { "element": "way", "id": 121509550, "name": null, "place": null, "wikidata": null, "source": "NRCan-CanVec-7.0", "natural": "wood" }, "geometry": { "type": "Polygon", "coordinates": [ [ [ 566744.709697176702321, 5003499.73358824569732 ], [ 566751.645959891146049, 5003499.16215284820646 ], [ 566757.741286855307408, 5003503.837055189535022 ], [ 566764.010746874148026, 5003522.57945067062974 ], [ 566783.611281173652969, 5003542.339860461652279 ], [ 566793.702774110017344, 5003582.398767492733896 ], [ 566815.224909920012578, 5003601.712877435609698 ], [ 566818.055764253716916, 5003614.186240173876286 ], [ 566815.736554354429245, 5003621.772384614683688 ], [ 566779.729553561541252, 5003631.948129551485181 ], [ 566779.895675045554526, 5003646.026646663434803 ], [ 566798.670760866603814, 5003671.01138726528734 ], [ 566803.978992431424558, 5003689.977030546404421 ], [ 566795.46132904838305, 5003719.129711577668786 ], [ 566774.348111912258901, 5003746.105537952855229 ], [ 566761.235205898294225, 5003746.045324119739234 ], [ 566749.900202223565429, 5003740.548675919882953 ], [ 566702.457293274346739, 5003695.852923615835607 ], [ 566671.222122297622263, 5003673.692879822105169 ], [ 566664.683451139018871, 5003667.10242573544383 ], [ 566662.731252580764703, 5003658.471424493938684 ], [ 566664.824612891767174, 5003649.927368195727468 ], [ 566685.758041298482567, 5003631.070932619273663 ], [ 566687.543891774024814, 5003625.623428364284337 ], [ 566676.139857772737741, 5003601.994166611693799 ], [ 566675.999769526068121, 5003543.541354905813932 ], [ 566685.764572295360267, 5003533.255829490721226 ], [ 566710.57240936474409, 5003522.595155811868608 ], [ 566744.709697176702321, 5003499.73358824569732 ] ] ] } },
{ "type": "Feature", "properties": { "element": "way", "id": 121566711, "name": null, "place": null, "wikidata": null, "source": "NRCan-CanVec-7.0", "natural": "wood" }, "geometry": { "type": "Polygon", "coordinates": [ [ [ 565248.898347050650045, 5004365.153596309013665 ], [ 565255.300837278482504, 5004366.719339489936829 ], [ 565287.069875912740827, 5004386.744729270227253 ], [ 565342.631280501140282, 5004409.44846107903868 ], [ 565371.744405167060904, 5004408.892915261909366 ], [ 565398.168934416025877, 5004400.888118934817612 ], [ 565407.881369975744747, 5004403.732492626644671 ], [ 565438.551212070509791, 5004441.146021423861384 ], [ 565459.856321054510772, 5004459.508923945017159 ], [ 565466.516486745793372, 5004471.11012724135071 ], [ 565463.892261557863094, 5004481.793357338756323 ], [ 565444.112882116227411, 5004470.134568422101438 ], [ 565438.792431183857843, 5004473.357214343734086 ], [ 565442.271524699521251, 5004488.703072994947433 ], [ 565458.85291514871642, 5004526.293587216176093 ], [ 565484.428462321055122, 5004545.700576434843242 ], [ 565528.136348819127306, 5004565.039420952089131 ], [ 565590.630298969917931, 5004587.172602597624063 ], [ 565623.57573435746599, 5004607.945171915926039 ], [ 565632.753355763386935, 5004635.104793261736631 ], [ 565640.799946012208238, 5004670.585445332340896 ], [ 565640.47545495419763, 5004695.869112606160343 ], [ 565632.498774570412934, 5004700.708431657403708 ], [ 565625.878911822568625, 5004698.173453884199262 ], [ 565519.163506195065565, 5004636.652524617500603 ], [ 565443.163955341558903, 5004599.426246857270598 ], [ 565414.456363627687097, 5004570.643373595550656 ], [ 565398.471986050251871, 5004549.046825107187033 ], [ 565383.189956712187268, 5004517.2249910607934 ], [ 565368.828396024531685, 5004476.113380359485745 ], [ 565363.475709908991121, 5004470.269769059494138 ], [ 565354.716144098900259, 5004467.213072719052434 ], [ 565337.79430244944524, 5004477.093558307737112 ], [ 565324.368245879537426, 5004480.132824481464922 ], [ 565301.092782964347862, 5004475.326857149600983 ], [ 565261.872355058789253, 5004458.002289613708854 ], [ 565240.970185482874513, 5004432.489191550761461 ], [ 565234.148276447900571, 5004384.622641594149172 ], [ 565239.961030442500487, 5004370.194623194634914 ], [ 565248.898347050650045, 5004365.153596309013665 ] ] ] } },
{ "type": "Feature", "properties": { "element": "way", "id": 121566809, "name": null, "place": null, "wikidata": null, "source": "NRCan-CanVec-7.0", "natural": "wood" }, "geometry": { "type": "Polygon", "coordinates": [ [ [ 565437.681770179187879, 5004361.687440723180771 ], [ 565449.226831624167971, 5004368.13940136320889 ], [ 565464.339834009297192, 5004385.894026498310268 ], [ 565477.588191251154058, 5004390.963722567074001 ], [ 565485.572986993123777, 5004386.124289420433342 ], [ 565497.134797159815207, 5004370.400389982387424 ], [ 565502.665451700566337, 5004368.135445832274854 ], [ 565513.782409462030046, 5004372.67213664483279 ], [ 565554.510987586923875, 5004418.900585715658963 ], [ 565576.194634141284041, 5004452.300011853687465 ], [ 565579.366431018570438, 5004470.742544904351234 ], [ 565573.689720521215349, 5004490.182414057664573 ], [ 565551.850953435176052, 5004496.134019903838634 ], [ 565530.279172105947509, 5004489.933806440792978 ], [ 565514.383865315583535, 5004464.293741672299802 ], [ 565508.974366943934001, 5004471.570663445629179 ], [ 565519.113332974142395, 5004498.517822524532676 ], [ 565518.410539249074645, 5004508.754246169701219 ], [ 565496.709829516010359, 5004497.542076855897903 ], [ 565485.989005198585801, 5004485.854477806948125 ], [ 565479.635706301429309, 5004471.167761711403728 ], [ 565477.295424115494825, 5004447.489813910797238 ], [ 565431.084795457893051, 5004390.406127957627177 ], [ 565428.259362982469611, 5004377.944583564065397 ], [ 565433.104052824783139, 5004363.728954342193902 ], [ 565437.681770179187879, 5004361.687440723180771 ] ] ] } },
{ "type": "Feature", "properties": { "element": "way", "id": 121567058, "name": null, "place": null, "wikidata": null, "source": "NRCan-CanVec-7.0", "natural": "wood" }, "geometry": { "type": "Polygon", "coordinates": [ [ [ 565508.011774324346334, 5004698.666074103675783 ], [ 565529.364818589063361, 5004703.919593745842576 ], [ 565566.758572635939345, 5004717.627251273021102 ], [ 565585.79437106475234, 5004730.44533958658576 ], [ 565616.203757651033811, 5004757.84673366509378 ], [ 565626.092093321844004, 5004774.758907103911042 ], [ 565626.785564136342146, 5004786.698537271469831 ], [ 565621.625887387432158, 5004804.010543777607381 ], [ 565617.048422818304971, 5004806.051923444494605 ], [ 565591.732051231432706, 5004796.668525640852749 ], [ 565580.437906819512136, 5004800.229249807074666 ], [ 565576.989729426451959, 5004816.136868641711771 ], [ 565586.117845845874399, 5004856.428288622759283 ], [ 565656.298444466083311, 5004930.260116816498339 ], [ 565660.826415222254582, 5004941.339515625499189 ], [ 565658.548836929956451, 5004957.981384297832847 ], [ 565644.234493964468129, 5004979.376084645278752 ], [ 565622.050487807719037, 5004979.368728092871606 ], [ 565565.566363541060127, 5004965.952184118330479 ], [ 565510.679277719580568, 5004977.384147485718131 ], [ 565496.342578998650424, 5004967.52568740490824 ], [ 565490.643588725593872, 5004955.712150502949953 ], [ 565470.728964182198979, 5004939.041100848466158 ], [ 565468.930510208243504, 5004891.048303352668881 ], [ 565451.332662025233731, 5004866.801797971129417 ], [ 565449.589318796992302, 5004859.128819627687335 ], [ 565460.989136004587635, 5004829.326454546302557 ], [ 565454.935314587433822, 5004811.531959304586053 ], [ 565429.110667637200095, 5004782.101012548431754 ], [ 565424.017307008150965, 5004764.094252651557326 ], [ 565430.040260056382976, 5004750.624050490558147 ], [ 565445.694026459474117, 5004744.052710275165737 ], [ 565492.664643661002629, 5004702.151769848540425 ], [ 565508.011774324346334, 5004698.666074103675783 ] ] ] } },
{ "type": "Feature", "properties": { "element": "way", "id": 121567108, "name": null, "place": null, "wikidata": null, "source": "NRCan-CanVec-7.0", "natural": "wood" }, "geometry": { "type": "Polygon", "coordinates": [ [ [ 566394.76277053647209, 5005705.715709880925715 ], [ 566406.739800848881714, 5005714.096108895726502 ], [ 566410.620577138033696, 5005722.291740022599697 ], [ 566412.521374703967012, 5005744.043470663949847 ], [ 566427.546700931503437, 5005765.843798306770623 ], [ 566430.812712563201785, 5005780.232573434710503 ], [ 566428.494678542949259, 5005787.81887221802026 ], [ 566419.250897138379514, 5005795.965912161394954 ], [ 566411.664038101327606, 5005793.653268085792661 ], [ 566394.764094135141931, 5005781.354908492416143 ], [ 566388.624289439758286, 5005767.613795557059348 ], [ 566383.200915878289379, 5005721.449112975038588 ], [ 566389.00732051837258, 5005707.022021202370524 ], [ 566394.76277053647209, 5005705.715709880925715 ] ] ] } },
{ "type": "Feature", "properties": { "element": "way", "id": 121567126, "name": null, "place": null, "wikidata": null, "source": "NRCan-CanVec-7.0", "natural": "wood" }, "geometry": { "type": "Polygon", "coordinates": [ [ [ 565969.971794347511604, 5005224.193967728875577 ], [ 565984.365145381656475, 5005220.932837345637381 ], [ 566014.175072242505848, 5005232.331152745522559 ], [ 566099.521604976151139, 5005310.792349504306912 ], [ 566117.115728609962389, 5005335.04070763476193 ], [ 566154.905612836009823, 5005417.229001156054437 ], [ 566160.124704655027017, 5005440.248488312587142 ], [ 566149.03754834132269, 5005466.964262534864247 ], [ 566137.347504355246201, 5005477.686010582372546 ], [ 566117.642524202237837, 5005484.168948370032012 ], [ 566112.194142659660429, 5005482.378934619948268 ], [ 566091.014977998333052, 5005469.025769856758416 ], [ 566086.705970920622349, 5005458.903800927102566 ], [ 566073.946147970971651, 5005442.63865428045392 ], [ 566048.317953625111841, 5005436.349889187142253 ], [ 566032.894011084805243, 5005421.701409731060266 ], [ 566014.210803353227675, 5005392.653399234637618 ], [ 566008.842320957221091, 5005333.368414280004799 ], [ 565986.62338289921172, 5005302.106074595823884 ], [ 565963.719437626074068, 5005258.893105993047357 ], [ 565961.202741466695443, 5005243.323600701056421 ], [ 565963.609576872782782, 5005231.693914682604373 ], [ 565969.971794347511604, 5005224.193967728875577 ] ] ] } },
{ "type": "Feature", "properties": { "element": "way", "id": 121567153, "name": null, "place": null, "wikidata": null, "source": "NRCan-CanVec-7.0", "natural": "wood" }, "geometry": { "type": "Polygon", "coordinates": [ [ [ 566317.266565680271015, 5004892.362045996822417 ], [ 566340.283280601841398, 5004887.147575410082936 ], [ 566357.590514658018947, 5004892.294934269040823 ], [ 566394.405370620079339, 5004921.267061793245375 ], [ 566408.510689642513171, 5004952.356984881684184 ], [ 566427.026816761121154, 5004967.316503340378404 ], [ 566440.498968123225495, 5004973.334977182559669 ], [ 566469.079825541004539, 5004997.110558948479593 ], [ 566473.73460110265296, 5005013.191546004265547 ], [ 566462.29949450539425, 5005033.936903987079859 ], [ 566426.626609768136404, 5005072.28267846442759 ], [ 566407.253685972071253, 5005106.921791767701507 ], [ 566377.854763533454388, 5005141.822662072256207 ], [ 566361.970960819395259, 5005169.621133823879063 ], [ 566358.610540017485619, 5005181.474022406153381 ], [ 566368.872918124310672, 5005213.434717224910855 ], [ 566368.176532897981815, 5005223.68226255569607 ], [ 566364.987386237597093, 5005227.426401172764599 ], [ 566344.410255627008155, 5005230.077573750168085 ], [ 566331.599898011307232, 5005226.921567755751312 ], [ 566326.76587228057906, 5005218.94934740383178 ], [ 566338.896554360399023, 5005187.956199291162193 ], [ 566332.635502128512599, 5005169.21425318531692 ], [ 566323.274784552399069, 5005150.162141038104892 ], [ 566323.465915366425179, 5005119.866283464245498 ], [ 566320.634858361212537, 5005107.393115121871233 ], [ 566308.182204880402423, 5005088.030940532684326 ], [ 566268.563476439216174, 5005077.861992138437927 ], [ 566266.397558513097465, 5005046.074952122755349 ], [ 566251.723885717568919, 5005030.244993707165122 ], [ 566256.27439490496181, 5004996.950457512401044 ], [ 566248.78779007436242, 5004968.396504753269255 ], [ 566250.363085305667482, 5004961.980084230192006 ], [ 566281.93991203350015, 5004936.678485484793782 ], [ 566317.266565680271015, 5004892.362045996822417 ] ] ] } },
{ "type": "Feature", "properties": { "element": "way", "id": 121567200, "name": null, "place": null, "wikidata": null, "source": "NRCan-CanVec-7.0", "natural": "wood" }, "geometry": { "type": "Polygon", "coordinates": [ [ [ 565504.573047911631875, 5004314.259168745018542 ], [ 565513.203822575742379, 5004312.304001555778086 ], [ 565522.924317275872454, 5004315.137522150762379 ], [ 565584.673817788949236, 5004414.079405051656067 ], [ 565567.154721693252213, 5004407.965413677506149 ], [ 565543.37137680221349, 5004383.110358915291727 ], [ 565533.393274550326169, 5004370.241557707078755 ], [ 565518.329399283160456, 5004339.377140193246305 ], [ 565504.830934294033796, 5004324.28330494929105 ], [ 565504.573047911631875, 5004314.259168745018542 ] ] ] } },
{ "type": "Feature", "properties": { "element": "way", "id": 121567320, "name": null, "place": null, "wikidata": null, "source": "NRCan-CanVec-7.0", "natural": "wood" }, "geometry": { "type": "Polygon", "coordinates": [ [ [ 566600.471093575004488, 5004566.997057050466537 ], [ 566687.607080145622604, 5004564.379434139467776 ], [ 566746.62146081449464, 5004571.166359017603099 ], [ 566759.133383567794226, 5004577.408707571215928 ], [ 566775.51061869005207, 5004591.846753372810781 ], [ 566804.962969296146184, 5004619.454952786676586 ], [ 566808.190738066914491, 5004624.777466094121337 ], [ 566821.845639272360131, 5004676.128828261978924 ], [ 566841.360317532438785, 5004699.943899526260793 ], [ 566841.226466647000052, 5004717.119068817235529 ], [ 566832.761691773193888, 5004733.150973006151617 ], [ 566853.185041914694011, 5004769.863653277046978 ], [ 566854.567252029199153, 5004793.754337962716818 ], [ 566818.692714379751123, 5004786.754558973945677 ], [ 566808.140616115997545, 5004789.154343978501856 ], [ 566804.855294866953045, 5004819.139870912767947 ], [ 566782.874735098215751, 5004842.27344020921737 ], [ 566720.360270510078408, 5004864.513937946408987 ], [ 566669.683391018770635, 5004912.299902476370335 ], [ 566646.794368904083967, 5004922.536394229158759 ], [ 566628.219339502044022, 5004920.696910905651748 ], [ 566616.061629794654436, 5004920.424774018116295 ], [ 566592.007339055184275, 5004907.728609911166131 ], [ 566585.252138901734725, 5004900.180438037961721 ], [ 566583.300264976336621, 5004891.549441785551608 ], [ 566590.585818718886003, 5004874.771556003950536 ], [ 566591.815544146695174, 5004862.396448727697134 ], [ 566588.11383413313888, 5004846.092063548974693 ], [ 566552.02941907173954, 5004838.136100166477263 ], [ 566522.513109053485096, 5004845.837014420889318 ], [ 566499.15017236978747, 5004845.080954719334841 ], [ 566471.170858367695473, 5004837.31042701471597 ], [ 566454.785743412328884, 5004822.87307969853282 ], [ 566445.821843225741759, 5004796.669909597374499 ], [ 566467.633642865228467, 5004683.828680664300919 ], [ 566475.669946701964363, 5004665.869732381775975 ], [ 566513.041022842284292, 5004626.142111068591475 ], [ 566528.837122757919133, 5004602.398348018527031 ], [ 566542.750448412029073, 5004588.145308351144195 ], [ 566573.092699022847228, 5004575.220171575434506 ], [ 566600.471093575004488, 5004566.997057050466537 ] ] ] } },
{ "type": "Feature", "properties": { "element": "way", "id": 121567384, "name": null, "place": null, "wikidata": null, "source": "NRCan-CanVec-7.0", "natural": "wood" }, "geometry": { "type": "Polygon", "coordinates": [ [ [ 566737.78077429975383, 5004074.041819767095149 ], [ 566754.17285462655127, 5004066.292614426463842 ], [ 566756.625423894962296, 5004041.531293489970267 ], [ 566766.960851712152362, 5004038.184742694720626 ], [ 566788.315414798096754, 5004043.420264114625752 ], [ 566799.342248009634204, 5004052.013530955649912 ], [ 566823.249965439666994, 5004081.885421841405332 ], [ 566833.405782542191446, 5004086.636514563113451 ], [ 566853.371614644769579, 5004090.17997139133513 ], [ 566863.647304306272417, 5004099.954243855550885 ], [ 566870.922358690062538, 5004132.028661959804595 ], [ 566583.565880472538993, 5004129.006304757669568 ], [ 566590.122967761941254, 5004116.587129973806441 ], [ 566610.491134196287021, 5004090.791697885841131 ], [ 566636.565060413326137, 5004076.810971161350608 ], [ 566649.992649998399429, 5004073.774468850344419 ], [ 566689.571020826231688, 5004074.879220101982355 ], [ 566699.201513443957083, 5004081.779975682497025 ], [ 566724.505979385809042, 5004113.343831640668213 ], [ 566738.714820779277943, 5004118.192952455952764 ], [ 566749.267881295643747, 5004115.804152337834239 ], [ 566749.191533330478705, 5004097.671303519047797 ], [ 566739.650791355641559, 5004086.727257432416081 ], [ 566737.78077429975383, 5004074.041819767095149 ] ] ] } },
{ "type": "Feature", "properties": { "element": "way", "id": 121567427, "name": null, "place": null, "wikidata": null, "source": "NRCan-CanVec-7.0", "natural": "wood" }, "geometry": { "type": "Polygon", "coordinates": [ [ [ 566872.131166431587189, 5004137.352139763534069 ], [ 566892.652306244708598, 5004147.82331189326942 ], [ 566895.828326256596483, 5004166.266614372842014 ], [ 566891.88913501589559, 5004193.378721822984517 ], [ 566880.856612888746895, 5004206.972550380975008 ], [ 566861.889907388831489, 5004212.283349451608956 ], [ 566854.129530966863967, 5004218.06781842559576 ], [ 566847.789497126825154, 5004256.820495713502169 ], [ 566833.567287502810359, 5004274.158305392600596 ], [ 566831.256130767171271, 5004281.744532456621528 ], [ 566836.435804261593148, 5004295.698121756315231 ], [ 566845.758312475518323, 5004305.684539233334363 ], [ 566871.510395038174465, 5004316.988500495441258 ], [ 566895.604378826799802, 5004338.752126093953848 ], [ 566904.145808468805626, 5004340.842061144299805 ], [ 566933.101673215976916, 5004326.215219332836568 ], [ 566945.606055311625823, 5004332.457847289741039 ], [ 566954.005490289302543, 5004351.72292713355273 ], [ 566957.181211829534732, 5004370.166269109584391 ], [ 566962.273740467848256, 5004463.791266568005085 ], [ 566978.77216042438522, 5004505.429222888313234 ], [ 567006.693657450261526, 5004548.510014043189585 ], [ 567006.551513495389372, 5004565.685097452253103 ], [ 566997.177487109787762, 5004568.819192842580378 ], [ 566970.375909747555852, 5004561.792201351374388 ], [ 566959.080526916543022, 5004565.350481729023159 ], [ 566941.752355415956117, 5004604.575960735790431 ], [ 566933.684618784463964, 5004613.467978558503091 ], [ 566876.066928281099536, 5004608.382796952500939 ], [ 566864.733700637472793, 5004602.874810165725648 ], [ 566849.74498053744901, 5004590.139932691119611 ], [ 566797.31523664155975, 5004501.19381330255419 ], [ 566779.764994870405644, 5004463.833868565969169 ], [ 566768.828679971746169, 5004451.186298321932554 ], [ 566752.924714790889993, 5004447.730265318416059 ], [ 566723.496122125303373, 5004451.375936187803745 ], [ 566683.66420630691573, 5004440.235634279437363 ], [ 566652.411716947797686, 5004440.262717057950795 ], [ 566623.892465241136961, 5004456.817489620298147 ], [ 566571.760841017588973, 5004462.580849997699261 ], [ 566547.858473786967807, 5004486.150583264417946 ], [ 566536.942560105235316, 5004526.944280822761357 ], [ 566529.003431053133681, 5004540.848906408064067 ], [ 566475.852873061550781, 5004559.95695773512125 ], [ 566465.949379081372172, 5004587.406774799339473 ], [ 566447.101137317484245, 5004695.546045263297856 ], [ 566441.421931937686168, 5004714.985169659368694 ], [ 566424.109866353566758, 5004732.013742791488767 ], [ 566405.362920827814378, 5004738.283659279346466 ], [ 566396.821996367536485, 5004736.183281559497118 ], [ 566389.451646222500131, 5004734.828448347747326 ], [ 566325.449174086214043, 5004683.795817859470844 ], [ 566297.698688068892807, 5004654.796655799262226 ], [ 566268.718819063040428, 5004638.172778156585991 ], [ 566250.508645371417515, 5004620.117175363004208 ], [ 566230.871030168025754, 5004591.29194126650691 ], [ 566201.058423413429409, 5004579.892645675688982 ], [ 566199.751439064275473, 5004574.14608545973897 ], [ 566204.418831535615027, 5004568.039684541523457 ], [ 566230.318820903776214, 5004562.166048895567656 ], [ 566241.913218190078624, 5004555.509825168177485 ], [ 566260.901922045974061, 5004505.822846433147788 ], [ 566273.644083927152678, 5004490.83482348639518 ], [ 566315.977707712794654, 5004464.101419226266444 ], [ 566321.170334567083046, 5004455.867412085644901 ], [ 566326.592797846067697, 5004426.404004754498601 ], [ 566333.668200242565945, 5004408.668155485764146 ], [ 566350.545358303934336, 5004389.712698325514793 ], [ 566374.913794325315394, 5004377.124099048785865 ], [ 566384.723279958590865, 5004375.915727010928094 ], [ 566402.766916741267778, 5004379.893189604394138 ], [ 566440.724625946953893, 5004400.533620096743107 ], [ 566450.316406427067704, 5004398.356472242623568 ], [ 566470.721684948774055, 5004381.627017579972744 ], [ 566476.222000020905398, 5004370.296578471548855 ], [ 566473.826341164531186, 5004359.750004905276 ], [ 566481.901587985805236, 5004350.857491456903517 ], [ 566500.949208234669641, 5004341.502263441681862 ], [ 566503.357444086577743, 5004329.861675964668393 ], [ 566483.635078214341775, 5004282.902744313701987 ], [ 566494.628078492009081, 5004260.241812187246978 ], [ 566493.123907694593072, 5004231.350337103009224 ], [ 566501.024799976032227, 5004208.379249409772456 ], [ 566513.235015131533146, 5004195.530405411496758 ], [ 566547.939597404561937, 5004179.595519138500094 ], [ 566564.728316372842528, 5004164.694950485602021 ], [ 566583.565880472538993, 5004129.006304757669568 ], [ 566870.922358690062538, 5004132.028661959804595 ], [ 566872.131166431587189, 5004137.352139763534069 ] ] ] } },
{ "type": "Feature", "properties": { "element": "way", "id": 121567602, "name": null, "place": null, "wikidata": null, "source": "NRCan-CanVec-7.0", "natural": "wood" }, "geometry": { "type": "Polygon", "coordinates": [ [ [ 565592.518808813067153, 5005009.249926069751382 ], [ 565610.875798019347712, 5005010.139745678752661 ], [ 565632.227822932298295, 5005015.382516512647271 ], [ 565653.765871316660196, 5005012.516767524182796 ], [ 565672.986563112703152, 5005017.237650867551565 ], [ 565692.24697981774807, 5005031.013899253681302 ], [ 565698.03454119944945, 5005038.784395757131279 ], [ 565718.562431968632154, 5005049.251876126043499 ], [ 565742.956488660303876, 5005067.925571298226714 ], [ 565744.174494341947138, 5005077.73748414311558 ], [ 565720.109294871450402, 5005087.220696372911334 ], [ 565715.571484165964648, 5005098.339530260302126 ], [ 565717.742343118065037, 5005107.9279944896698 ], [ 565761.782097141258419, 5005155.42551136482507 ], [ 565760.504394632182084, 5005180.921523983590305 ], [ 565753.520567551720887, 5005194.603671690449119 ], [ 565738.481513469712809, 5005194.99217276647687 ], [ 565680.999356854590587, 5005172.720406221225858 ], [ 565650.938854542095214, 5005151.299590102396905 ], [ 565614.300099238287657, 5005114.234222280792892 ], [ 565592.04663592914585, 5005073.895861007273197 ], [ 565591.271940807579085, 5005066.010648316703737 ], [ 565598.740648871520534, 5005041.123054209165275 ], [ 565589.555669446592219, 5005013.963379100896418 ], [ 565592.518808813067153, 5005009.249926069751382 ] ] ] } },
{ "type": "Feature", "properties": { "element": "way", "id": 121567714, "name": null, "place": null, "wikidata": null, "source": "NRCan-CanVec-7.0", "natural": "wood" }, "geometry": { "type": "Polygon", "coordinates": [ [ [ 566129.653255186625756, 5004669.696856323629618 ], [ 566144.822018669568934, 5004674.321359192021191 ], [ 566148.349699893617071, 5004676.546877205371857 ], [ 566149.042205595644191, 5004688.486572485417128 ], [ 566143.017657157615758, 5004701.956106689758599 ], [ 566143.274500680388883, 5004711.98028529714793 ], [ 566151.072734702611342, 5004715.250266726128757 ], [ 566163.199713862268254, 5004706.455169143155217 ], [ 566191.113520635059103, 5004673.915420731529593 ], [ 566204.539738880703226, 5004670.866878878325224 ], [ 566214.041567531181499, 5004672.743708346970379 ], [ 566243.795245155692101, 5004697.263741738162935 ], [ 566262.888285748427734, 5004696.963203640654683 ], [ 566282.81365763861686, 5004691.438461780548096 ], [ 566298.328259514295496, 5004702.044299216940999 ], [ 566303.290913768811151, 5004715.039690027944744 ], [ 566300.832555749337189, 5004739.790000178851187 ], [ 566290.97282173554413, 5004754.130360041745007 ], [ 566273.190070403856225, 5004835.805352297611535 ], [ 566263.766163229825906, 5004852.06128072924912 ], [ 566258.009973642416298, 5004853.367716847918928 ], [ 566248.072919131838717, 5004849.56418446265161 ], [ 566235.658387033268809, 5004839.268591720610857 ], [ 566224.978381118620746, 5004836.646141830831766 ], [ 566222.419091905001551, 5004887.649104418233037 ], [ 566203.840091113233939, 5004907.998128734529018 ], [ 566190.620723280706443, 5004934.180500221438706 ], [ 566186.089914331561886, 5004998.739712431095541 ], [ 566176.755897706141695, 5005010.94143692497164 ], [ 566162.805458936025389, 5005016.117736428976059 ], [ 566139.314723677700385, 5005010.350903742015362 ], [ 566125.632524859975092, 5005003.364286014810205 ], [ 566104.284150356426835, 5004975.943697599694133 ], [ 566099.974804735626094, 5004965.821730670519173 ], [ 566084.032728043501265, 5004953.300939492881298 ], [ 566076.048160628182814, 5004958.139621037058532 ], [ 566073.431050361017697, 5004968.811588185839355 ], [ 566075.590117551968433, 5005000.59846646618098 ], [ 566073.925754030351527, 5005011.058153244666755 ], [ 566068.605417379061691, 5005014.280272297561169 ], [ 566051.049309454858303, 5004999.098494462668896 ], [ 566040.369504800299183, 5004996.476352772675455 ], [ 566008.723439763416536, 5005003.646381402388215 ], [ 565995.686653253505938, 5004999.544334812089801 ], [ 565939.718294413178228, 5004930.556045614182949 ], [ 565897.145408338983543, 5004902.893339848145843 ], [ 565878.449382379418239, 5004896.044052892364562 ], [ 565873.564788253977895, 5004901.181833094917238 ], [ 565911.570561291766353, 5004984.326229856349528 ], [ 565914.523215738357976, 5005001.811207961291075 ], [ 565911.599270886392333, 5005015.579823778010905 ], [ 565905.625449912971817, 5005015.928827277384698 ], [ 565897.827470044023357, 5005012.659143572673202 ], [ 565871.375884652254172, 5004989.40825483482331 ], [ 565844.76389108679723, 5004952.07906009349972 ], [ 565809.889433442498557, 5004953.928061234764755 ], [ 565797.38522470346652, 5004947.687664773315191 ], [ 565792.421624086331576, 5004934.70378287974745 ], [ 565791.568268642295152, 5004908.674603787250817 ], [ 565758.16755640739575, 5004854.73214353993535 ], [ 565753.075073776999488, 5004836.736216454766691 ], [ 565754.867666255566292, 5004831.288532563485205 ], [ 565760.712931343237869, 5004825.927306043915451 ], [ 565820.211064906558022, 5004821.511478742584586 ], [ 565828.623383457073942, 5004818.598998279310763 ], [ 565847.555791841354221, 5004804.218798467889428 ], [ 565854.78954821487423, 5004800.571947479620576 ], [ 565883.166086972341873, 5004801.188828307203948 ], [ 565888.497013573418371, 5004775.779387942515314 ], [ 565886.990281729726121, 5004746.888060361146927 ], [ 565925.097235120134428, 5004728.163173618726432 ], [ 565943.804412595462054, 5004712.825426063500345 ], [ 565959.726714545511641, 5004694.092350444756448 ], [ 565978.780372934881598, 5004684.735649768263102 ], [ 566021.197787396842614, 5004676.122102892957628 ], [ 566036.673688907991163, 5004677.660877549089491 ], [ 566049.306709321332164, 5004688.913826531730592 ], [ 566062.235781038179994, 5004719.257394132204354 ], [ 566086.062776411301456, 5004753.18094220943749 ], [ 566101.22339725389611, 5004757.816370406188071 ], [ 566116.135085938731208, 5004752.416629972867668 ], [ 566118.235247044591233, 5004743.872471872717142 ], [ 566115.321941857691854, 5004735.464930758811533 ], [ 566079.20842707529664, 5004696.258081832900643 ], [ 566075.851617128355429, 5004685.923857538960874 ], [ 566082.965143227716908, 5004677.254150205291808 ], [ 566129.653255186625756, 5004669.696856323629618 ] ] ] } }
]
}
