{
"type": "FeatureCollection",
"name": "lake_of_the_woods",
"crs": { "type": "name", "properties": { "name": "urn:ogc:def:crs:OGC:1.3:CRS84" } },
"features": [
{ "type": "Feature", "properties": { "element": "node", "id": 1417543840, "name": "Allans Island", "place": "island", "source": null, "natural": null }, "geometry": { "type": "Point", "coordinates": [ -94.4687347, 49.7198372 ] } },
{ "type": "Feature", "properties": { "element": "node", "id": 1417543851, "name": "Baker's Island", "place": "island", "source": null, "natural": null }, "geometry": { "type": "Point", "coordinates": [ -94.4633713, 49.7205009 ] } },
{ "type": "Feature", "properties": { "element": "node", "id": 1417543903, "name": "Connor Island", "place": "island", "source": "NRCan-CanVec-7.0", "natural": null }, "geometry": { "type": "Point", "coordinates": [ -94.4757569, 49.7104854 ] } },
{ "type": "Feature", "properties": { "element": "node", "id": 1417543913, "name": "Deacon's Island", "place": "island", "source": null, "natural": null }, "geometry": { "type": "Point", "coordinates": [ -94.4768867, 49.7232666 ] } },
{ "type": "Feature", "properties": { "element": "node", "id": 1417543945, "name": "Galt Island", "place": "island", "source": null, "natural": null }, "geometry": { "type": "Point", "coordinates": [ -94.479538, 49.7212982 ] } },
{ "type": "Feature", "properties": { "element": "node", "id": 1417543953, "name": "Gordon Island", "place": "island", "source": null, "natural": null }, "geometry": { "type": "Point", "coordinates": [ -94.473114, 49.7122021 ] } },
{ "type": "Feature", "properties": { "element": "node", "id": 1417544040, "name": "Leach Island", "place": "island", "source": null, "natural": null }, "geometry": { "type": "Point", "coordinates": [ -94.4794006, 49.6958313 ] } },
{ "type": "Feature", "properties": { "element": "node", "id": 1417544057, "name": "Nickerson Island", "place": "island", "source": null, "natural": null }, "geometry": { "type": "Point", "coordinates": [ -94.4776688, 49.7250633 ] } },
{ "type": "Feature", "properties": { "element": "node", "id": 1417544088, "name": "Town Island", "place": "island", "source": null, "natural": null }, "geometry": { "type": "Point", "coordinates": [ -94.4755135, 49.7017097 ] } },
{ "type": "Feature", "properties": { "element": "node", "id": 6653540736, "name": "Peanut Island", "place": "island", "source": null, "natural": null }, "geometry": { "type": "Point", "coordinates": [ -94.4709118, 49.6815965 ] } },
{ "type": "Feature", "properties": { "element": "way", "id": 245406186, "name": "Treaty Island", "place": "island", "source": "NRCan-CanVec-7.0", "natural": null }, "geometry": { "type": "Polygon", "coordinates": [ [ [ -94.5, 49.738099 ], [ -94.500454, 49.7381839 ], [ -94.500632, 49.7379944 ], [ -94.5007786, 49.7378726 ], [ -94.5010822, 49.7378726 ], [ -94.5013021, 49.738035 ], [ -94.5016372, 49.7380824 ], [ -94.502789, 49.7377373 ], [ -94.5035219, 49.7373177 ], [ -94.5036161, 49.7369794 ], [ -94.5036999, 49.7366478 ], [ -94.504014, 49.7365057 ], [ -94.5043072, 49.7365733 ], [ -94.5045376, 49.7367763 ], [ -94.5050192, 49.7366072 ], [ -94.5053857, 49.7363974 ], [ -94.5055951, 49.7360928 ], [ -94.505616, 49.7358831 ], [ -94.5060453, 49.735362 ], [ -94.506171, 49.7349898 ], [ -94.5062757, 49.7346717 ], [ -94.5064118, 49.7345093 ], [ -94.5066841, 49.7344416 ], [ -94.5069458, 49.7345363 ], [ -94.5073437, 49.7344078 ], [ -94.5075217, 49.7341709 ], [ -94.5078673, 49.7340558 ], [ -94.5078463, 49.7335009 ], [ -94.5078044, 49.7333046 ], [ -94.5077625, 49.7328918 ], [ -94.5076055, 49.7325873 ], [ -94.5074798, 49.7319511 ], [ -94.5074903, 49.7313961 ], [ -94.5079091, 49.7310645 ], [ -94.5082756, 49.7311186 ], [ -94.5085793, 49.7312337 ], [ -94.5090609, 49.7311728 ], [ -94.5095635, 49.7308479 ], [ -94.5096996, 49.7305095 ], [ -94.5091656, 49.730435 ], [ -94.5091133, 49.7302252 ], [ -94.5091656, 49.7300357 ], [ -94.5095949, 49.7298733 ], [ -94.510108, 49.7298327 ], [ -94.5104745, 49.7297379 ], [ -94.5103802, 49.7294063 ], [ -94.5106211, 49.7291694 ], [ -94.5115425, 49.7292438 ], [ -94.5124534, 49.7294875 ], [ -94.512977, 49.7296093 ], [ -94.5136785, 49.7296364 ], [ -94.5145057, 49.7295823 ], [ -94.5155632, 49.7296905 ], [ -94.5164009, 49.7299207 ], [ -94.5170815, 49.7296905 ], [ -94.517249, 49.7293792 ], [ -94.5174794, 49.7290882 ], [ -94.5176783, 49.7285941 ], [ -94.5179401, 49.728276 ], [ -94.5184846, 49.7279443 ], [ -94.5186102, 49.7275585 ], [ -94.5189034, 49.7271118 ], [ -94.5193013, 49.7268884 ], [ -94.5195735, 49.7269832 ], [ -94.5198772, 49.7270915 ], [ -94.5203902, 49.727017 ], [ -94.5207567, 49.7268749 ], [ -94.5211022, 49.7268275 ], [ -94.5213954, 49.7269696 ], [ -94.5217619, 49.7268952 ], [ -94.5214059, 49.7267598 ], [ -94.5212069, 49.7265568 ], [ -94.5212279, 49.7264011 ], [ -94.5214059, 49.7263131 ], [ -94.5212384, 49.7260694 ], [ -94.5207148, 49.7258867 ], [ -94.5207776, 49.7256633 ], [ -94.5212069, 49.7255211 ], [ -94.5214582, 49.7251759 ], [ -94.5216362, 49.7248307 ], [ -94.5224111, 49.7244584 ], [ -94.5224736, 49.7238611 ], [ -94.5221844, 49.7231756 ], [ -94.5221951, 49.7228155 ], [ -94.5224629, 49.7224486 ], [ -94.5227735, 49.7221231 ], [ -94.5222915, 49.7217146 ], [ -94.5212848, 49.721133 ], [ -94.5206314, 49.7208353 ], [ -94.5198175, 49.7203852 ], [ -94.5190249, 49.7201013 ], [ -94.5184466, 49.7198866 ], [ -94.5180182, 49.7199005 ], [ -94.5176754, 49.7197551 ], [ -94.5174934, 49.7195127 ], [ -94.5173434, 49.7193258 ], [ -94.5171292, 49.7194227 ], [ -94.517322, 49.719672 ], [ -94.5171935, 49.7197828 ], [ -94.5163581, 49.7195404 ], [ -94.5155334, 49.7194919 ], [ -94.5149122, 49.7194573 ], [ -94.514366, 49.7195127 ], [ -94.513959, 49.7196097 ], [ -94.5144607, 49.7197533 ], [ -94.5150194, 49.7197887 ], [ -94.5154028, 49.7201429 ], [ -94.5154685, 49.7204545 ], [ -94.5149427, 49.7205678 ], [ -94.5141978, 49.7207945 ], [ -94.5138472, 49.7211698 ], [ -94.513398, 49.7216939 ], [ -94.513398, 49.7219985 ], [ -94.5134857, 49.7221897 ], [ -94.5139458, 49.7222818 ], [ -94.5138362, 49.722473 ], [ -94.5134638, 49.7225438 ], [ -94.5134419, 49.7229617 ], [ -94.513398, 49.723252 ], [ -94.5121601, 49.7232874 ], [ -94.5104731, 49.7233937 ], [ -94.5096515, 49.7233441 ], [ -94.5086874, 49.7232379 ], [ -94.5082273, 49.7232733 ], [ -94.5077672, 49.7233158 ], [ -94.50734, 49.723075 ], [ -94.5075262, 49.7228059 ], [ -94.5072414, 49.7222747 ], [ -94.5071756, 49.7219985 ], [ -94.5067046, 49.7216727 ], [ -94.506113, 49.7214885 ], [ -94.5057624, 49.7211911 ], [ -94.5052804, 49.7210211 ], [ -94.5049737, 49.7207732 ], [ -94.5045574, 49.7205041 ], [ -94.5043164, 49.7200225 ], [ -94.5042397, 49.7194842 ], [ -94.5040535, 49.7191371 ], [ -94.5034838, 49.7189246 ], [ -94.5027717, 49.7188822 ], [ -94.5021035, 49.7186413 ], [ -94.5011942, 49.7182376 ], [ -94.5006465, 49.7178126 ], [ -94.5004164, 49.7176922 ], [ -94.5, 49.7175077 ], [ -94.4992756, 49.7170593 ], [ -94.4985679, 49.7167823 ], [ -94.4984022, 49.7166645 ], [ -94.4982095, 49.7165338 ], [ -94.4980308, 49.7165225 ], [ -94.497884, 49.7166776 ], [ -94.4978278, 49.7167224 ], [ -94.4977145, 49.7168931 ], [ -94.4976976, 49.7171365 ], [ -94.4975562, 49.7173341 ], [ -94.4972213, 49.7174316 ], [ -94.4970952, 49.717512 ], [ -94.4970066, 49.7179353 ], [ -94.4967811, 49.7181776 ], [ -94.496822, 49.7182499 ], [ -94.4970153, 49.7183591 ], [ -94.4969581, 49.718485 ], [ -94.4967902, 49.7185743 ], [ -94.4963164, 49.718653 ], [ -94.4960925, 49.7187691 ], [ -94.4959796, 49.7189038 ], [ -94.495991, 49.7191112 ], [ -94.4961558, 49.7192833 ], [ -94.4961365, 49.719725 ], [ -94.4962611, 49.7197707 ], [ -94.4967476, 49.7197822 ], [ -94.4969132, 49.7198913 ], [ -94.4969801, 49.720108 ], [ -94.4972011, 49.7202263 ], [ -94.4974644, 49.7202998 ], [ -94.4978229, 49.7205541 ], [ -94.4985747, 49.7204768 ], [ -94.4987134, 49.7205136 ], [ -94.4990434, 49.7208218 ], [ -94.5, 49.720991 ], [ -94.5004524, 49.7211594 ], [ -94.5009007, 49.7211521 ], [ -94.5018307, 49.7211956 ], [ -94.5023013, 49.721384 ], [ -94.5026823, 49.7214347 ], [ -94.5028056, 49.7216882 ], [ -94.5024582, 49.7217896 ], [ -94.502447, 49.7221156 ], [ -94.5024918, 49.7224996 ], [ -94.5021444, 49.7226517 ], [ -94.5017186, 49.7228256 ], [ -94.5008558, 49.7225213 ], [ -94.5007886, 49.7222533 ], [ -94.500374, 49.7221011 ], [ -94.5, 49.7221 ], [ -94.499345, 49.7223199 ], [ -94.4990381, 49.7223995 ], [ -94.4989818, 49.7224533 ], [ -94.4989367, 49.7227326 ], [ -94.4988661, 49.7228224 ], [ -94.4987547, 49.7228308 ], [ -94.498684, 49.7229296 ], [ -94.4986973, 49.7229748 ], [ -94.4989884, 49.7230574 ], [ -94.4992622, 49.7234104 ], [ -94.4993867, 49.7234652 ], [ -94.4996643, 49.7235117 ], [ -94.5, 49.723506 ], [ -94.5004188, 49.7234196 ], [ -94.5005421, 49.7231443 ], [ -94.5009791, 49.7231153 ], [ -94.5017186, 49.7233037 ], [ -94.5023798, 49.7235645 ], [ -94.5029176, 49.7238687 ], [ -94.5033098, 49.7238832 ], [ -94.5036684, 49.7238035 ], [ -94.504576, 49.7236296 ], [ -94.5051923, 49.7236586 ], [ -94.5055621, 49.7239194 ], [ -94.5048786, 49.7240715 ], [ -94.5045088, 49.7243903 ], [ -94.5044191, 49.7245931 ], [ -94.5039933, 49.7247452 ], [ -94.5039373, 49.724977 ], [ -94.5042847, 49.725274 ], [ -94.5046208, 49.7254189 ], [ -94.5044303, 49.7257376 ], [ -94.5037132, 49.7262157 ], [ -94.5032202, 49.7267372 ], [ -94.5029512, 49.7269111 ], [ -94.5026487, 49.7268169 ], [ -94.5022789, 49.7265851 ], [ -94.5018755, 49.7264837 ], [ -94.5017299, 49.7261867 ], [ -94.5020324, 49.726136 ], [ -94.5019428, 49.7259332 ], [ -94.5014385, 49.7258318 ], [ -94.5010239, 49.7257448 ], [ -94.5005981, 49.7257014 ], [ -94.5003404, 49.7257883 ], [ -94.5, 49.725805 ], [ -94.4994684, 49.7258999 ], [ -94.4988678, 49.7261132 ], [ -94.4982682, 49.7262454 ], [ -94.4978621, 49.7264687 ], [ -94.4972196, 49.7266908 ], [ -94.496953, 49.7268878 ], [ -94.4966169, 49.7270754 ], [ -94.4957514, 49.7273324 ], [ -94.4950409, 49.7274279 ], [ -94.4949859, 49.7273826 ], [ -94.4947358, 49.7273633 ], [ -94.4944963, 49.7276055 ], [ -94.4940923, 49.7276665 ], [ -94.4935085, 49.7276364 ], [ -94.4932001, 49.7278332 ], [ -94.492643, 49.7278934 ], [ -94.4917361, 49.7281231 ], [ -94.4915551, 49.7281402 ], [ -94.4914862, 49.7280858 ], [ -94.4912915, 49.7280848 ], [ -94.490245, 49.7283588 ], [ -94.4899369, 49.7285285 ], [ -94.4898084, 49.7287984 ], [ -94.4895838, 49.7289595 ], [ -94.4895962, 49.7290858 ], [ -94.4897611, 49.7292489 ], [ -94.4898584, 49.7292494 ], [ -94.490024, 49.7293585 ], [ -94.4900083, 49.7295027 ], [ -94.4897992, 49.7295376 ], [ -94.4893989, 49.7292921 ], [ -94.4890095, 49.7292901 ], [ -94.4885474, 49.7295401 ], [ -94.4880466, 49.7295465 ], [ -94.4879203, 49.729636 ], [ -94.4875571, 49.7297604 ], [ -94.4869728, 49.7297663 ], [ -94.4868607, 49.7298379 ], [ -94.486443, 49.7298717 ], [ -94.4861103, 49.7297798 ], [ -94.485679, 49.7297866 ], [ -94.4854858, 49.7296684 ], [ -94.485305, 49.7296674 ], [ -94.4852903, 49.7297305 ], [ -94.4852205, 49.7297481 ], [ -94.485096, 49.7296934 ], [ -94.485083, 49.7296212 ], [ -94.4847486, 49.7296645 ], [ -94.4846214, 49.7298261 ], [ -94.4845241, 49.7298256 ], [ -94.4844115, 49.7299332 ], [ -94.4843955, 49.7300954 ], [ -94.4841165, 49.7301661 ], [ -94.4838501, 49.730336 ], [ -94.483736, 49.7305608 ], [ -94.4838708, 49.7309041 ], [ -94.4837397, 49.7313723 ], [ -94.4839983, 49.7318244 ], [ -94.4839688, 49.7319595 ], [ -94.4836635, 49.7319038 ], [ -94.4833885, 49.7316499 ], [ -94.483294, 49.731424 ], [ -94.4830757, 49.7310803 ], [ -94.4827438, 49.7309252 ], [ -94.4822983, 49.730959 ], [ -94.4817672, 49.7311635 ], [ -94.4815145, 49.7313425 ], [ -94.4814028, 49.731378 ], [ -94.4805693, 49.7312924 ], [ -94.4802797, 49.7310925 ], [ -94.4800578, 49.7310463 ], [ -94.4799459, 49.7310908 ], [ -94.4797769, 49.7312612 ], [ -94.4795129, 49.7312327 ], [ -94.4792207, 49.7312402 ], [ -94.4790392, 49.7312933 ], [ -94.4788566, 49.7314366 ], [ -94.4788958, 49.7316352 ], [ -94.4790057, 49.731744 ], [ -94.4796858, 49.7318648 ], [ -94.4797093, 49.7322075 ], [ -94.4797916, 49.7322981 ], [ -94.4799862, 49.7323082 ], [ -94.4802241, 49.7321922 ], [ -94.4804469, 49.7321754 ], [ -94.4807778, 49.7324115 ], [ -94.4810698, 49.7324221 ], [ -94.4813471, 49.7324867 ], [ -94.4817473, 49.7327412 ], [ -94.481731, 49.7329305 ], [ -94.4812793, 49.7334601 ], [ -94.4812754, 49.7337666 ], [ -94.4816925, 49.7337868 ], [ -94.4818321, 49.7337425 ], [ -94.4821102, 49.733753 ], [ -94.4824154, 49.7338177 ], [ -94.4824981, 49.7338812 ], [ -94.4829149, 49.7339195 ], [ -94.4833747, 49.7338588 ], [ -94.4834867, 49.7338053 ], [ -94.483891, 49.7337353 ], [ -94.4842247, 49.7337461 ], [ -94.4845153, 49.7338648 ], [ -94.4847934, 49.7338753 ], [ -94.4850043, 49.7336961 ], [ -94.4851017, 49.7336966 ], [ -94.4852097, 49.7339586 ], [ -94.4853898, 49.7340137 ], [ -94.4855415, 49.7341227 ], [ -94.4855405, 49.7342038 ], [ -94.4856363, 49.7343305 ], [ -94.485845, 49.7343226 ], [ -94.4860133, 49.7342153 ], [ -94.4862356, 49.7342345 ], [ -94.4863046, 49.7342799 ], [ -94.4864158, 49.7342895 ], [ -94.4865122, 49.7343622 ], [ -94.486776, 49.7344086 ], [ -94.4869142, 49.7344815 ], [ -94.487206, 49.734501 ], [ -94.4875266, 49.7344486 ], [ -94.4878901, 49.7343062 ], [ -94.4882378, 49.7343081 ], [ -94.488321, 49.7343355 ], [ -94.488317, 49.7346511 ], [ -94.4881173, 49.7350558 ], [ -94.4879213, 49.7351539 ], [ -94.4877545, 49.735144 ], [ -94.4876578, 49.7350894 ], [ -94.4872547, 49.7350603 ], [ -94.4869898, 49.735113 ], [ -94.4867117, 49.7351025 ], [ -94.4864224, 49.7348756 ], [ -94.4862286, 49.7347935 ], [ -94.4854357, 49.7347983 ], [ -94.4851013, 49.7348416 ], [ -94.4848631, 49.7349756 ], [ -94.4848476, 49.7351018 ], [ -94.4846927, 49.7352542 ], [ -94.4842323, 49.73536 ], [ -94.4840075, 49.7355392 ], [ -94.4840033, 49.7358727 ], [ -94.48389, 49.7360344 ], [ -94.4839304, 49.7361429 ], [ -94.4841096, 49.73627 ], [ -94.4841079, 49.7364053 ], [ -94.4839384, 49.7366117 ], [ -94.4840581, 49.7370542 ], [ -94.484141, 49.7370997 ], [ -94.4842907, 49.737362 ], [ -94.4846218, 49.7375891 ], [ -94.4848855, 49.7376356 ], [ -94.4852473, 49.7376284 ], [ -94.4860292, 49.7373981 ], [ -94.4860856, 49.7373443 ], [ -94.4863228, 49.7372824 ], [ -94.4867285, 49.7371042 ], [ -94.4869094, 49.7370962 ], [ -94.4868931, 49.7372944 ], [ -94.4865253, 49.7377794 ], [ -94.486311, 49.7382291 ], [ -94.4862795, 49.7385265 ], [ -94.4865695, 49.7386993 ], [ -94.487527, 49.7388937 ], [ -94.4882202, 49.7390866 ], [ -94.4884547, 49.7392501 ], [ -94.4884941, 49.7394397 ], [ -94.4884214, 49.7396918 ], [ -94.4883225, 49.7398175 ], [ -94.4882506, 49.7400064 ], [ -94.4883281, 49.7404847 ], [ -94.4882724, 49.7404844 ], [ -94.4882136, 49.7407456 ], [ -94.4882241, 49.7410161 ], [ -94.4883059, 49.7411518 ], [ -94.4888988, 49.7415877 ], [ -94.488996, 49.7415972 ], [ -94.4895494, 49.7418526 ], [ -94.4901457, 49.7420089 ], [ -94.4903385, 49.7421722 ], [ -94.4903368, 49.7423075 ], [ -94.4902656, 49.7424424 ], [ -94.490319, 49.742623 ], [ -94.4905956, 49.7427596 ], [ -94.4906792, 49.7427511 ], [ -94.4909831, 49.742924 ], [ -94.4911757, 49.7431053 ], [ -94.4913007, 49.743124 ], [ -94.491425, 49.7431967 ], [ -94.4919118, 49.7432083 ], [ -94.4922335, 49.7430747 ], [ -94.4929083, 49.7425101 ], [ -94.4929089, 49.7424651 ], [ -94.493175, 49.7423222 ], [ -94.4935092, 49.7422968 ], [ -94.4936611, 49.7423878 ], [ -94.493798, 49.7425688 ], [ -94.4940058, 49.742642 ], [ -94.4941034, 49.7426245 ], [ -94.4942305, 49.7424719 ], [ -94.4942046, 49.7423185 ], [ -94.4941084, 49.7422188 ], [ -94.4940002, 49.7419658 ], [ -94.4940596, 49.7416595 ], [ -94.4942985, 49.7414714 ], [ -94.4947715, 49.7414738 ], [ -94.4948138, 49.741429 ], [ -94.4950366, 49.7414121 ], [ -94.4951747, 49.7414939 ], [ -94.4953279, 49.7414857 ], [ -94.4955947, 49.7412797 ], [ -94.4959073, 49.7407493 ], [ -94.4959141, 49.7401904 ], [ -94.4959564, 49.7401455 ], [ -94.496235, 49.7401199 ], [ -94.4966932, 49.7401944 ], [ -94.4972497, 49.7401972 ], [ -94.497668, 49.7401182 ], [ -94.4979215, 49.739867 ], [ -94.4980654, 49.7394711 ], [ -94.4980891, 49.7386687 ], [ -94.498034, 49.7386234 ], [ -94.4977697, 49.738622 ], [ -94.4975873, 49.7387473 ], [ -94.4969667, 49.7394474 ], [ -94.4965882, 49.7396799 ], [ -94.4963934, 49.7396789 ], [ -94.4962277, 49.7395789 ], [ -94.496164, 49.7391007 ], [ -94.4960952, 49.7390372 ], [ -94.4958184, 49.7389186 ], [ -94.4952903, 49.7388708 ], [ -94.4948046, 49.7387691 ], [ -94.4947368, 49.7386245 ], [ -94.4951283, 49.7384642 ], [ -94.4954069, 49.7384386 ], [ -94.4956445, 49.7383496 ], [ -94.495895, 49.7383419 ], [ -94.4959921, 49.7383695 ], [ -94.4960456, 49.738541 ], [ -94.496281, 49.7386324 ], [ -94.4966006, 49.7386611 ], [ -94.496796, 49.738608 ], [ -94.4971488, 49.7382041 ], [ -94.4972491, 49.7379612 ], [ -94.4972388, 49.7376636 ], [ -94.4968367, 49.7375533 ], [ -94.4969228, 49.7373374 ], [ -94.4971323, 49.7372753 ], [ -94.4971744, 49.7372395 ], [ -94.4978295, 49.7371436 ], [ -94.4979538, 49.7372164 ], [ -94.49802, 49.7374872 ], [ -94.4981998, 49.7375783 ], [ -94.4986024, 49.7376435 ], [ -94.498988, 49.73797 ], [ -94.499348, 49.7381071 ], [ -94.4999183, 49.7381191 ], [ -94.5, 49.738099 ] ] ] } },
{ "type": "Feature", "properties": { "element": "way", "id": 245406190, "name": "Shragges Island", "place": "island", "source": "NRCan-CanVec-7.0", "natural": "wood" }, "geometry": { "type": "Polygon", "coordinates": [ [ [ -94.4999287, 49.716952 ], [ -94.4998982, 49.7168412 ], [ -94.4998865, 49.7166608 ], [ -94.4997633, 49.7164979 ], [ -94.499807, 49.7163358 ], [ -94.5, 49.716252 ], [ -94.5004377, 49.7161707 ], [ -94.5006898, 49.7161453 ], [ -94.5008635, 49.7159787 ], [ -94.5008635, 49.7156635 ], [ -94.5007178, 49.7154317 ], [ -94.5004377, 49.7152506 ], [ -94.5001295, 49.7151527 ], [ -94.5, 49.7150844 ], [ -94.4994494, 49.7148645 ], [ -94.4991989, 49.7148812 ], [ -94.4986407, 49.7150497 ], [ -94.4983906, 49.7150394 ], [ -94.4982106, 49.7149753 ], [ -94.4982116, 49.7148942 ], [ -94.4983931, 49.714832 ], [ -94.4984089, 49.7146788 ], [ -94.4985073, 49.7145892 ], [ -94.4988555, 49.7145369 ], [ -94.4991209, 49.7144391 ], [ -94.499165, 49.7142409 ], [ -94.4989863, 49.7140687 ], [ -94.4990192, 49.7136542 ], [ -94.4986877, 49.7134722 ], [ -94.4986887, 49.7133911 ], [ -94.4989414, 49.713194 ], [ -94.4990111, 49.7131763 ], [ -94.4994042, 49.7128628 ], [ -94.4993808, 49.712502 ], [ -94.5002311, 49.71216 ], [ -94.5003365, 49.7120919 ], [ -94.5008066, 49.7120552 ], [ -94.5015846, 49.7119294 ], [ -94.502395, 49.7119137 ], [ -94.5038376, 49.7117879 ], [ -94.5050209, 49.7118875 ], [ -94.5056044, 49.712029 ], [ -94.5063014, 49.7123539 ], [ -94.5071199, 49.7124482 ], [ -94.5079304, 49.7123539 ], [ -94.5086436, 49.7123591 ], [ -94.5093892, 49.7124744 ], [ -94.5098349, 49.7127993 ], [ -94.5099217, 49.7134327 ], [ -94.5094384, 49.7136273 ], [ -94.5094701, 49.7139194 ], [ -94.5096364, 49.7140679 ], [ -94.5099771, 49.7144471 ], [ -94.5102149, 49.7148313 ], [ -94.5108091, 49.7153795 ], [ -94.5107616, 49.7156203 ], [ -94.5108883, 49.7159635 ], [ -94.5112528, 49.7162043 ], [ -94.5116331, 49.7163273 ], [ -94.5120531, 49.7163682 ], [ -94.5125681, 49.7164963 ], [ -94.5129801, 49.716691 ], [ -94.5133446, 49.7169062 ], [ -94.5135506, 49.717234 ], [ -94.5134159, 49.7174646 ], [ -94.5129484, 49.7177668 ], [ -94.5124809, 49.7178642 ], [ -94.5122274, 49.7178693 ], [ -94.5120055, 49.7178334 ], [ -94.5115064, 49.7178488 ], [ -94.5114905, 49.7179615 ], [ -94.5114984, 49.7181305 ], [ -94.5112528, 49.7182535 ], [ -94.5109438, 49.7183201 ], [ -94.5107616, 49.7182893 ], [ -94.5106982, 49.7183713 ], [ -94.5106189, 49.7186582 ], [ -94.5104209, 49.718899 ], [ -94.510199, 49.7190936 ], [ -94.5098583, 49.7191244 ], [ -94.5091214, 49.7190988 ], [ -94.5091214, 49.7192063 ], [ -94.5088916, 49.7192063 ], [ -94.5088758, 49.7190475 ], [ -94.5086064, 49.719109 ], [ -94.5085747, 49.7193395 ], [ -94.5081389, 49.7192063 ], [ -94.5079171, 49.7190475 ], [ -94.5075209, 49.7190117 ], [ -94.5069821, 49.7190424 ], [ -94.5069663, 49.71915 ], [ -94.5068949, 49.71936 ], [ -94.5067999, 49.7194061 ], [ -94.5065463, 49.719319 ], [ -94.5064354, 49.7191705 ], [ -94.5063879, 49.7190219 ], [ -94.506166, 49.7189963 ], [ -94.5057936, 49.7189195 ], [ -94.5050013, 49.7186736 ], [ -94.5046764, 49.718607 ], [ -94.5042644, 49.7184891 ], [ -94.5037573, 49.718315 ], [ -94.5034483, 49.7181254 ], [ -94.503369, 49.7179359 ], [ -94.50306, 49.7177873 ], [ -94.5030125, 49.7175055 ], [ -94.5028778, 49.7171777 ], [ -94.5024262, 49.7171623 ], [ -94.5018953, 49.7172187 ], [ -94.5014833, 49.7172443 ], [ -94.501095, 49.7171982 ], [ -94.5006672, 49.7170701 ], [ -94.5005325, 49.7168601 ], [ -94.5003106, 49.7168908 ], [ -94.5002789, 49.7170957 ], [ -94.5002314, 49.7171879 ], [ -94.500065, 49.7171521 ], [ -94.4999287, 49.716952 ] ] ] } },
{ "type": "Feature", "properties": { "element": "way", "id": 254166488, "name": "Channel Island", "place": "island", "source": "NRCan-CanVec-10.0", "natural": "wood" }, "geometry": { "type": "Polygon", "coordinates": [ [ [ -94.5298402, 49.7156326 ], [ -94.5299353, 49.7155684 ], [ -94.5299484, 49.7155413 ], [ -94.5299189, 49.7154877 ], [ -94.5298762, 49.7154523 ], [ -94.5298202, 49.715435 ], [ -94.5297624, 49.7153638 ], [ -94.5297457, 49.7152741 ], [ -94.5298094, 49.7150933 ], [ -94.5298315, 49.7149132 ], [ -94.5298018, 49.7148506 ], [ -94.5297599, 49.7148421 ], [ -94.5297047, 49.7148519 ], [ -94.5295825, 49.7149344 ], [ -94.5293467, 49.7149376 ], [ -94.5292627, 49.7149117 ], [ -94.5291515, 49.7149041 ], [ -94.5290408, 49.7149146 ], [ -94.5289185, 49.7149972 ], [ -94.5288495, 49.7150071 ], [ -94.5286953, 49.7149551 ], [ -94.528474, 49.7149761 ], [ -94.5282914, 49.7149065 ], [ -94.5282479, 49.7148441 ], [ -94.5282456, 49.7147722 ], [ -94.5283257, 49.7146722 ], [ -94.528268, 49.714601 ], [ -94.5279992, 49.7144336 ], [ -94.5278529, 49.7141927 ], [ -94.5277954, 49.7141305 ], [ -94.5276545, 49.7140604 ], [ -94.5275835, 49.7140074 ], [ -94.5275258, 49.7139362 ], [ -94.5275119, 49.7139363 ], [ -94.5275071, 49.7137835 ], [ -94.5274635, 49.7137211 ], [ -94.5274349, 49.7136945 ], [ -94.5273789, 49.7136772 ], [ -94.5271423, 49.7136534 ], [ -94.5271126, 49.7135908 ], [ -94.52715, 49.7134555 ], [ -94.5271347, 49.7134106 ], [ -94.5270787, 49.7133934 ], [ -94.5269123, 49.7133955 ], [ -94.5267866, 49.7133702 ], [ -94.526785, 49.7133163 ], [ -94.5268113, 49.7132709 ], [ -94.5270292, 49.7131421 ], [ -94.5270416, 49.713097 ], [ -94.5270125, 49.7130524 ], [ -94.5269559, 49.7130172 ], [ -94.5269002, 49.7130089 ], [ -94.5268156, 49.7129651 ], [ -94.5267723, 49.7129117 ], [ -94.526755, 49.712804 ], [ -94.5268331, 49.712641 ], [ -94.5268411, 49.712452 ], [ -94.5268946, 49.7123883 ], [ -94.5270165, 49.7122968 ], [ -94.5271815, 49.7122496 ], [ -94.5272217, 49.7122041 ], [ -94.5271926, 49.7121595 ], [ -94.5270785, 49.7120621 ], [ -94.5270022, 49.7118382 ], [ -94.52693, 49.7117492 ], [ -94.5268044, 49.7117239 ], [ -94.5267631, 49.7117334 ], [ -94.5266935, 49.7117254 ], [ -94.5266213, 49.7116364 ], [ -94.5265223, 49.7115747 ], [ -94.5264215, 49.7114591 ], [ -94.526379, 49.7114327 ], [ -94.5262812, 49.711407 ], [ -94.526185, 49.7114352 ], [ -94.526091, 49.7115354 ], [ -94.5259679, 49.711591 ], [ -94.5258697, 49.7115563 ], [ -94.5258545, 49.7115115 ], [ -94.5258913, 49.7113581 ], [ -94.5259289, 49.7112317 ], [ -94.5259816, 49.7111411 ], [ -94.5259932, 49.711069 ], [ -94.5259205, 49.710962 ], [ -94.525835, 49.7108911 ], [ -94.5257368, 49.7108564 ], [ -94.5256672, 49.7108484 ], [ -94.5255982, 49.7108583 ], [ -94.5255597, 49.7109577 ], [ -94.5255916, 49.7110922 ], [ -94.5256355, 49.7111636 ], [ -94.525623, 49.7112088 ], [ -94.5255828, 49.7112543 ], [ -94.5252922, 49.7112761 ], [ -94.5250559, 49.7112612 ], [ -94.5249303, 49.7112359 ], [ -94.5246402, 49.7112757 ], [ -94.5245318, 49.7113581 ], [ -94.5244933, 49.7114575 ], [ -94.5243872, 49.7116118 ], [ -94.5240252, 49.7120124 ], [ -94.5239035, 49.7121129 ], [ -94.523279, 49.7121031 ], [ -94.5231685, 49.7121226 ], [ -94.5230452, 49.7121692 ], [ -94.5229379, 49.7122875 ], [ -94.5229003, 49.712414 ], [ -94.5228069, 49.7125321 ], [ -94.522738, 49.712551 ], [ -94.5224608, 49.7125547 ], [ -94.5223357, 49.7125473 ], [ -94.5217785, 49.7124737 ], [ -94.5216679, 49.7124841 ], [ -94.5215564, 49.7124676 ], [ -94.5214277, 49.7123434 ], [ -94.521231, 49.712265 ], [ -94.521105, 49.7122307 ], [ -94.5209525, 49.7122327 ], [ -94.5207465, 49.7122983 ], [ -94.5205799, 49.7122915 ], [ -94.5204392, 49.7122304 ], [ -94.5199551, 49.711832 ], [ -94.5197862, 49.7117533 ], [ -94.5197144, 49.7116733 ], [ -94.5196702, 49.7115929 ], [ -94.5196055, 49.711297 ], [ -94.5194369, 49.7112271 ], [ -94.5194349, 49.7111642 ], [ -94.5195012, 49.7110644 ], [ -94.5195685, 49.7110005 ], [ -94.5194828, 49.7109207 ], [ -94.5193422, 49.7108596 ], [ -94.5192426, 49.7107799 ], [ -94.5191352, 49.7104485 ], [ -94.5191697, 49.7102232 ], [ -94.5191259, 49.7101518 ], [ -94.5190427, 49.7101529 ], [ -94.5190034, 49.7102255 ], [ -94.5190336, 49.7103059 ], [ -94.5190073, 49.7103513 ], [ -94.5189524, 49.71037 ], [ -94.518852, 49.7102634 ], [ -94.5187396, 49.7102199 ], [ -94.5186562, 49.710212 ], [ -94.518546, 49.7102405 ], [ -94.5183975, 49.7103683 ], [ -94.5182599, 49.710406 ], [ -94.5181215, 49.710417 ], [ -94.5180132, 49.7104992 ], [ -94.5179749, 49.7106077 ], [ -94.5177762, 49.7109071 ], [ -94.5176944, 49.7109532 ], [ -94.5175982, 49.7109814 ], [ -94.5174174, 49.7109658 ], [ -94.5172216, 49.7109144 ], [ -94.5168062, 49.7109378 ], [ -94.516275, 49.7108098 ], [ -94.5161095, 49.710839 ], [ -94.515973, 49.7109127 ], [ -94.5158355, 49.7109505 ], [ -94.5156, 49.7109626 ], [ -94.515447, 49.7109466 ], [ -94.5148848, 49.7107111 ], [ -94.5147708, 49.7106137 ], [ -94.514712, 49.7105065 ], [ -94.5146945, 49.7103898 ], [ -94.5147344, 49.7103353 ], [ -94.5147891, 49.7103076 ], [ -94.5149274, 49.7102968 ], [ -94.5152084, 49.71041 ], [ -94.5152933, 49.7104629 ], [ -94.515405, 49.7104884 ], [ -94.515572, 49.7105042 ], [ -94.5158195, 49.710438 ], [ -94.515943, 49.7103914 ], [ -94.5159809, 49.710274 ], [ -94.5158941, 49.7101582 ], [ -94.5158777, 49.7100775 ], [ -94.5159179, 49.710032 ], [ -94.5161115, 49.7100114 ], [ -94.5161692, 49.7100826 ], [ -94.5162945, 49.710099 ], [ -94.5164609, 49.7100968 ], [ -94.516571, 49.7100684 ], [ -94.5166678, 49.7100581 ], [ -94.5167258, 49.7101383 ], [ -94.5167968, 49.7101914 ], [ -94.516894, 49.7101991 ], [ -94.5171437, 49.7101958 ], [ -94.5172263, 49.7101767 ], [ -94.5172524, 49.7101224 ], [ -94.5172046, 49.7099252 ], [ -94.5172265, 49.709736 ], [ -94.5171552, 49.7096739 ], [ -94.5170007, 49.709613 ], [ -94.5167206, 49.7095267 ], [ -94.5166216, 49.709465 ], [ -94.5165497, 49.709385 ], [ -94.5164615, 49.7092243 ], [ -94.516416, 49.7090989 ], [ -94.516315, 49.7089743 ], [ -94.5162298, 49.7089125 ], [ -94.5159855, 49.7086368 ], [ -94.5158259, 49.7084141 ], [ -94.5157957, 49.7083335 ], [ -94.515708, 49.7081907 ], [ -94.515581, 49.7081204 ], [ -94.5154814, 49.7080408 ], [ -94.5154076, 49.7078978 ], [ -94.515432, 49.7077896 ], [ -94.5155398, 49.7076892 ], [ -94.5156898, 49.7076063 ], [ -94.5157827, 49.7074701 ], [ -94.515781, 49.7074162 ], [ -94.515697, 49.7073903 ], [ -94.5154907, 49.707447 ], [ -94.5153939, 49.7074572 ], [ -94.515324, 49.7074402 ], [ -94.5153218, 49.7073682 ], [ -94.5153473, 49.707296 ], [ -94.5153162, 49.7071885 ], [ -94.5153425, 49.7071431 ], [ -94.5153972, 49.7071154 ], [ -94.5157684, 49.7070116 ], [ -94.5159068, 49.7070008 ], [ -94.5160599, 49.7070168 ], [ -94.5181225, 49.7073315 ], [ -94.5188907, 49.7075014 ], [ -94.5197969, 49.7076514 ], [ -94.5203693, 49.7077698 ], [ -94.5207733, 49.7078275 ], [ -94.5211624, 49.7078493 ], [ -94.5214844, 49.707944 ], [ -94.5215429, 49.7080422 ], [ -94.5215472, 49.7081771 ], [ -94.5214951, 49.7082857 ], [ -94.5213737, 49.7083953 ], [ -94.5209081, 49.7085903 ], [ -94.5207607, 49.7087541 ], [ -94.5204852, 49.7092615 ], [ -94.5204745, 49.7093605 ], [ -94.5204908, 49.7094413 ], [ -94.5205627, 49.7095213 ], [ -94.520705, 49.7096364 ], [ -94.5208448, 49.7096705 ], [ -94.5210665, 49.7096676 ], [ -94.5213175, 49.7097093 ], [ -94.5214967, 49.7096709 ], [ -94.5215915, 49.7095977 ], [ -94.5217373, 49.7093799 ], [ -94.5218457, 49.7092975 ], [ -94.5219974, 49.7092686 ], [ -94.5223848, 49.7092365 ], [ -94.5228035, 49.7093209 ], [ -94.5229275, 49.7092923 ], [ -94.522968, 49.7092558 ], [ -94.5229649, 49.709157 ], [ -94.5228081, 49.709024 ], [ -94.5228064, 49.7089701 ], [ -94.5229836, 49.7088688 ], [ -94.5230371, 49.7088051 ], [ -94.5230866, 49.7086156 ], [ -94.5230488, 49.7082923 ], [ -94.5230027, 49.708149 ], [ -94.5228598, 49.7080159 ], [ -94.5228581, 49.707962 ], [ -94.5228842, 49.7079076 ], [ -94.523064, 49.7078963 ], [ -94.5231745, 49.7078768 ], [ -94.523243, 49.707849 ], [ -94.5232543, 49.707768 ], [ -94.523127, 49.7076886 ], [ -94.5229589, 49.7076368 ], [ -94.5227498, 49.7076036 ], [ -94.5226927, 49.7075504 ], [ -94.5227145, 49.7073612 ], [ -94.5226562, 49.707272 ], [ -94.5225844, 49.707192 ], [ -94.5224992, 49.7071301 ], [ -94.5224701, 49.7070856 ], [ -94.5224826, 49.7070405 ], [ -94.5225925, 49.707012 ], [ -94.5228968, 49.706981 ], [ -94.5230357, 49.7069882 ], [ -94.5231586, 49.7069236 ], [ -94.5232525, 49.7068234 ], [ -94.5233182, 49.7067056 ], [ -94.523299, 49.706535 ], [ -94.5229739, 49.7063413 ], [ -94.5229439, 49.7062698 ], [ -94.5231055, 49.7061147 ], [ -94.5231174, 49.7060516 ], [ -94.5230863, 49.7059441 ], [ -94.5229748, 49.7059275 ], [ -94.5228761, 49.7058749 ], [ -94.5227895, 49.7057681 ], [ -94.5226767, 49.7057066 ], [ -94.5219119, 49.7056447 ], [ -94.521799, 49.7055832 ], [ -94.5216802, 49.7053329 ], [ -94.521468, 49.7052008 ], [ -94.5207992, 49.7051016 ], [ -94.5200633, 49.7050753 ], [ -94.5198683, 49.7050509 ], [ -94.5196604, 49.7050536 ], [ -94.5194538, 49.7051013 ], [ -94.519209, 49.7052574 ], [ -94.5190574, 49.7052864 ], [ -94.5184074, 49.7053489 ], [ -94.5182974, 49.7053773 ], [ -94.5182569, 49.7054138 ], [ -94.5182203, 49.7055762 ], [ -94.5182792, 49.7056834 ], [ -94.5184053, 49.7057267 ], [ -94.5185321, 49.705788 ], [ -94.5186319, 49.7058767 ], [ -94.5186622, 49.7059572 ], [ -94.5186087, 49.7060209 ], [ -94.5184429, 49.706041 ], [ -94.5179839, 49.7060021 ], [ -94.5177321, 49.7059334 ], [ -94.5175056, 49.7057835 ], [ -94.5170285, 49.7056098 ], [ -94.5167643, 49.7055863 ], [ -94.5165295, 49.7056164 ], [ -94.5163218, 49.7056281 ], [ -94.5158543, 49.7057601 ], [ -94.5156475, 49.7057988 ], [ -94.5152737, 49.7058217 ], [ -94.5151894, 49.7057868 ], [ -94.5151705, 49.7056252 ], [ -94.5151413, 49.7055806 ], [ -94.5150995, 49.7055721 ], [ -94.5149617, 49.7056009 ], [ -94.5148094, 49.7056119 ], [ -94.5147102, 49.7055412 ], [ -94.5146941, 49.7054695 ], [ -94.5145795, 49.7053541 ], [ -94.5145093, 49.705328 ], [ -94.514049, 49.7052441 ], [ -94.5138962, 49.7052371 ], [ -94.5137593, 49.7052928 ], [ -94.5136373, 49.7053844 ], [ -94.5135566, 49.7054664 ], [ -94.513406, 49.7055313 ], [ -94.5132943, 49.7055058 ], [ -94.5131418, 49.7055078 ], [ -94.512895, 49.705601 ], [ -94.5128268, 49.7056378 ], [ -94.5126738, 49.7056218 ], [ -94.5126036, 49.7055958 ], [ -94.5125889, 49.705569 ], [ -94.5126654, 49.7053521 ], [ -94.5127461, 49.7052701 ], [ -94.5127713, 49.7051888 ], [ -94.512741, 49.7051082 ], [ -94.5124848, 49.7048957 ], [ -94.5123739, 49.7048972 ], [ -94.5121956, 49.7049624 ], [ -94.5120708, 49.7049641 ], [ -94.5119164, 49.7049031 ], [ -94.5116934, 49.7048701 ], [ -94.511473, 49.7049179 ], [ -94.5113241, 49.7050368 ], [ -94.511133, 49.7051382 ], [ -94.510652, 49.7052794 ], [ -94.510334, 49.7053106 ], [ -94.5101133, 49.7053494 ], [ -94.5099192, 49.705352 ], [ -94.5095737, 49.7053924 ], [ -94.5093072, 49.705297 ], [ -94.509141, 49.7053081 ], [ -94.508891, 49.7052934 ], [ -94.5088488, 49.705276 ], [ -94.5084783, 49.704957 ], [ -94.5083242, 49.704905 ], [ -94.508267, 49.7048518 ], [ -94.5082504, 49.7047621 ], [ -94.5082884, 49.7046446 ], [ -94.5085077, 49.7045608 ], [ -94.5087046, 49.7046482 ], [ -94.5089142, 49.7046994 ], [ -94.5094022, 49.704783 ], [ -94.5098179, 49.7047686 ], [ -94.5101076, 49.7047199 ], [ -94.5104098, 49.704626 ], [ -94.5105743, 49.7045608 ], [ -94.5107265, 49.7045499 ], [ -94.511118, 49.7046527 ], [ -94.5112963, 49.7045874 ], [ -94.5115394, 49.7043773 ], [ -94.5116495, 49.7043489 ], [ -94.51183, 49.7043556 ], [ -94.51194, 49.7043271 ], [ -94.5119914, 49.7041915 ], [ -94.5119888, 49.7041106 ], [ -94.5122455, 49.7038915 ], [ -94.5122824, 49.703738 ], [ -94.5122658, 49.7036483 ], [ -94.5121529, 49.7035868 ], [ -94.511793, 49.7036095 ], [ -94.5116948, 49.7035748 ], [ -94.5115706, 49.7035944 ], [ -94.5114055, 49.7036415 ], [ -94.5109617, 49.7036383 ], [ -94.5108234, 49.7036491 ], [ -94.5105483, 49.7037246 ], [ -94.51041, 49.7037354 ], [ -94.5102974, 49.7036829 ], [ -94.510045, 49.7035963 ], [ -94.5098523, 49.7036438 ], [ -94.5096469, 49.7037274 ], [ -94.5088082, 49.7039632 ], [ -94.507501, 49.7043041 ], [ -94.5070054, 49.7044185 ], [ -94.5066875, 49.7044586 ], [ -94.5064677, 49.7045244 ], [ -94.5060956, 49.7046012 ], [ -94.5059182, 49.7046935 ], [ -94.5057693, 49.7048123 ], [ -94.5056051, 49.7048864 ], [ -94.5052469, 49.7049631 ], [ -94.505083, 49.7050461 ], [ -94.5049341, 49.705165 ], [ -94.5047594, 49.7053472 ], [ -94.5045299, 49.7055481 ], [ -94.5044908, 49.7056295 ], [ -94.5044933, 49.7057104 ], [ -94.5047603, 49.7058239 ], [ -94.5048174, 49.7058771 ], [ -94.5047562, 49.7061388 ], [ -94.5046896, 49.7062296 ], [ -94.5046785, 49.7063197 ], [ -94.5047085, 49.7063913 ], [ -94.5047653, 49.7064355 ], [ -94.5049034, 49.7064157 ], [ -94.5052459, 49.7062763 ], [ -94.5054677, 49.7062735 ], [ -94.5056083, 49.7063346 ], [ -94.5058659, 49.7065921 ], [ -94.5059788, 49.7066536 ], [ -94.5060367, 49.7067338 ], [ -94.5060279, 49.7068958 ], [ -94.5059758, 49.7070044 ], [ -94.5057977, 49.7070787 ], [ -94.50548, 49.7071188 ], [ -94.5052445, 49.7071309 ], [ -94.5049944, 49.7071162 ], [ -94.504717, 49.7071198 ], [ -94.504427, 49.7071595 ], [ -94.5039152, 49.7072021 ], [ -94.5037227, 49.7072586 ], [ -94.503532, 49.707369 ], [ -94.5033722, 49.707587 ], [ -94.5032414, 49.7078405 ], [ -94.5031016, 49.7082561 ], [ -94.5031615, 49.7083993 ], [ -94.5033176, 49.7085142 ], [ -94.5035, 49.7085838 ], [ -94.5036571, 49.7087257 ], [ -94.5037306, 49.7088596 ], [ -94.5036923, 49.7089681 ], [ -94.5036246, 49.7090229 ], [ -94.5034452, 49.7090522 ], [ -94.5033063, 49.709045 ], [ -94.5030847, 49.7090569 ], [ -94.5029061, 49.7091132 ], [ -94.5027175, 49.7092955 ], [ -94.5024026, 49.7094256 ], [ -94.5021716, 49.7095815 ], [ -94.5021319, 49.709645 ], [ -94.5021907, 49.7097521 ], [ -94.5023174, 49.7098135 ], [ -94.5026741, 49.7101326 ], [ -94.5028568, 49.7102112 ], [ -94.5030925, 49.7102082 ], [ -94.503316, 49.7102592 ], [ -94.503524, 49.7102565 ], [ -94.5037314, 49.7102359 ], [ -94.5038953, 49.7101528 ], [ -94.5040748, 49.7101235 ], [ -94.5043102, 49.7101114 ], [ -94.505232, 49.7103153 ], [ -94.5054544, 49.7103304 ], [ -94.5056638, 49.7103727 ], [ -94.5058174, 49.7104066 ], [ -94.5060975, 49.7104929 ], [ -94.5062362, 49.7104911 ], [ -94.506768, 49.7101964 ], [ -94.5070417, 49.7100759 ], [ -94.5074275, 49.7099899 ], [ -94.5077439, 49.7099048 ], [ -94.507924, 49.7099025 ], [ -94.5081485, 49.7099805 ], [ -94.508435, 49.7102736 ], [ -94.5086041, 49.7103614 ], [ -94.5089672, 49.7104376 ], [ -94.509369, 49.7104234 ], [ -94.5095065, 49.7103856 ], [ -94.5095451, 49.7102861 ], [ -94.5096374, 49.710132 ], [ -94.5096573, 49.70988 ], [ -94.5095549, 49.7097103 ], [ -94.5094277, 49.709631 ], [ -94.5093137, 49.7095336 ], [ -94.5092413, 49.7094356 ], [ -94.5092121, 49.709391 ], [ -94.509208, 49.7092561 ], [ -94.5092997, 49.709084 ], [ -94.5093535, 49.7090293 ], [ -94.5094486, 49.7089651 ], [ -94.509615, 49.7089629 ], [ -94.5098022, 49.7091854 ], [ -94.5100058, 49.7094886 ], [ -94.5103203, 49.7097903 ], [ -94.5104501, 49.7099505 ], [ -94.5106071, 49.7100924 ], [ -94.5108304, 49.7101344 ], [ -94.5110264, 49.7101948 ], [ -94.5112095, 49.7102824 ], [ -94.5113532, 49.7104424 ], [ -94.5114768, 49.7104048 ], [ -94.5115722, 49.7103496 ], [ -94.5117239, 49.7103207 ], [ -94.5118354, 49.7103372 ], [ -94.5120184, 49.7104248 ], [ -94.5122004, 49.7104764 ], [ -94.5123277, 49.7105556 ], [ -94.5124001, 49.7106536 ], [ -94.5124062, 49.7108515 ], [ -94.5123614, 49.711194 ], [ -94.5124238, 49.711418 ], [ -94.512491, 49.7117948 ], [ -94.5124949, 49.7119207 ], [ -94.5124281, 49.7120025 ], [ -94.5123893, 49.712093 ], [ -94.5124756, 49.7121908 ], [ -94.5125593, 49.7122077 ], [ -94.5126703, 49.7122063 ], [ -94.5128327, 49.7120782 ], [ -94.512998, 49.7120401 ], [ -94.5135255, 49.7120512 ], [ -94.5138995, 49.7120373 ], [ -94.5140394, 49.7120714 ], [ -94.5141517, 49.7121149 ], [ -94.5142521, 49.7122216 ], [ -94.5143109, 49.7123287 ], [ -94.5144518, 49.7123988 ], [ -94.5146937, 49.7125936 ], [ -94.515046, 49.7127689 ], [ -94.5157191, 49.7130029 ], [ -94.5161576, 49.713276 ], [ -94.5164535, 49.7134251 ], [ -94.5166924, 49.7135209 ], [ -94.5172707, 49.7138281 ], [ -94.5175093, 49.713915 ], [ -94.5178035, 49.71401 ], [ -94.5181669, 49.7140952 ], [ -94.518627, 49.7141702 ], [ -94.5188644, 49.714221 ], [ -94.5193382, 49.7142868 ], [ -94.5205625, 49.7144056 ], [ -94.5208148, 49.7144832 ], [ -94.5210103, 49.7145257 ], [ -94.5212463, 49.7145316 ], [ -94.5225218, 49.7145058 ], [ -94.5227595, 49.7145656 ], [ -94.5232077, 49.7147037 ], [ -94.5234302, 49.7147187 ], [ -94.5239424, 49.714685 ], [ -94.5246012, 49.7149012 ], [ -94.5250913, 49.7150477 ], [ -94.5254702, 49.7151866 ], [ -94.5257642, 49.7152727 ], [ -94.5260605, 49.7154307 ], [ -94.5262184, 49.7155995 ], [ -94.5262911, 49.7157065 ], [ -94.5263072, 49.7157782 ], [ -94.5263644, 49.7158314 ], [ -94.5265331, 49.7159012 ], [ -94.5267849, 49.7159698 ], [ -94.5269539, 49.7160485 ], [ -94.5272388, 49.7162876 ], [ -94.5273107, 49.7163677 ], [ -94.5274378, 49.7164379 ], [ -94.5277038, 49.7165154 ], [ -94.5278977, 49.7165038 ], [ -94.5280355, 49.716475 ], [ -94.5283137, 49.7164983 ], [ -94.528383, 49.7164974 ], [ -94.528424, 49.7164789 ], [ -94.5284495, 49.7164066 ], [ -94.5284328, 49.716317 ], [ -94.5284586, 49.7162536 ], [ -94.5285129, 49.7162169 ], [ -94.5286505, 49.7161791 ], [ -94.5287458, 49.7161238 ], [ -94.5287577, 49.7160607 ], [ -94.5287136, 49.7159803 ], [ -94.5287965, 49.7159703 ], [ -94.5288947, 49.7160049 ], [ -94.5290623, 49.7160387 ], [ -94.5291732, 49.7160372 ], [ -94.529504, 49.7159699 ], [ -94.5296585, 49.7160308 ], [ -94.5297143, 49.7160391 ], [ -94.5298252, 49.7160376 ], [ -94.5299495, 49.716018 ], [ -94.5300177, 49.7159811 ], [ -94.5300431, 49.7159088 ], [ -94.5300143, 49.7158732 ], [ -94.5299019, 49.7158297 ], [ -94.5298023, 49.7157501 ], [ -94.5298003, 49.7156871 ], [ -94.5298402, 49.7156326 ] ] ] } },
{ "type": "Feature", "properties": { "element": "way", "id": 254171936, "name": "Thompson Island", "place": "island", "source": "NRCan-CanVec-10.0", "natural": null }, "geometry": { "type": "Polygon", "coordinates": [ [ [ -94.4997868, 49.6865645 ], [ -94.4996949, 49.6866622 ], [ -94.4996883, 49.6868364 ], [ -94.499754, 49.6869596 ], [ -94.5, 49.6870062 ], [ -94.5001877, 49.6870566 ], [ -94.5004244, 49.6870895 ], [ -94.5007598, 49.6871751 ], [ -94.5010525, 49.6872253 ], [ -94.501191, 49.6872235 ], [ -94.5015628, 49.6871377 ], [ -94.501781, 49.6870179 ], [ -94.5018769, 49.6869807 ], [ -94.5020152, 49.6869699 ], [ -94.5021274, 49.6870135 ], [ -94.5021726, 49.6871298 ], [ -94.5021934, 49.6873544 ], [ -94.5022375, 49.6874348 ], [ -94.502322, 49.6874787 ], [ -94.5025158, 49.6874672 ], [ -94.502681, 49.687429 ], [ -94.5031062, 49.6872796 ], [ -94.5032855, 49.6872503 ], [ -94.503439, 49.6872843 ], [ -94.5034011, 49.6875 ], [ -94.5033461, 49.6875958 ], [ -94.5036983, 49.6878545 ], [ -94.5039173, 49.6882671 ], [ -94.503784, 49.6885258 ], [ -94.5033556, 49.6890555 ], [ -94.5034318, 49.6893819 ], [ -94.5036603, 49.6894804 ], [ -94.5038507, 49.6894866 ], [ -94.5036983, 49.6896282 ], [ -94.5038602, 49.6896652 ], [ -94.5040506, 49.6894989 ], [ -94.5044409, 49.6897329 ], [ -94.5046789, 49.6897021 ], [ -94.5051168, 49.6893388 ], [ -94.5052596, 49.689579 ], [ -94.5050311, 49.689776 ], [ -94.5041648, 49.6901332 ], [ -94.5039839, 49.691057 ], [ -94.5039744, 49.691408 ], [ -94.5031367, 49.6915989 ], [ -94.5026797, 49.6916852 ], [ -94.5020895, 49.6918391 ], [ -94.501147, 49.6922517 ], [ -94.5014326, 49.6924488 ], [ -94.5008329, 49.6928799 ], [ -94.5006044, 49.6930831 ], [ -94.5005187, 49.6932802 ], [ -94.5006901, 49.6934403 ], [ -94.5010233, 49.6934895 ], [ -94.5012422, 49.6935326 ], [ -94.5014897, 49.6934587 ], [ -94.5021942, 49.6928614 ], [ -94.5023561, 49.6928614 ], [ -94.5026512, 49.6930154 ], [ -94.5030224, 49.6929168 ], [ -94.5034508, 49.6926274 ], [ -94.5040125, 49.692301 ], [ -94.5044409, 49.6920978 ], [ -94.5049169, 49.691328 ], [ -94.5054024, 49.691057 ], [ -94.5058022, 49.6909215 ], [ -94.5062592, 49.6907368 ], [ -94.506878, 49.6905643 ], [ -94.5081727, 49.6905643 ], [ -94.5086296, 49.6905766 ], [ -94.5098386, 49.6904966 ], [ -94.5103717, 49.6902995 ], [ -94.5108477, 49.6901086 ], [ -94.5110381, 49.6898746 ], [ -94.5111714, 49.6895543 ], [ -94.511457, 49.6893018 ], [ -94.5120853, 49.6890185 ], [ -94.5126089, 49.6889446 ], [ -94.5131039, 49.6888214 ], [ -94.5132277, 49.688532 ], [ -94.5141321, 49.688027 ], [ -94.5145509, 49.6878176 ], [ -94.5149984, 49.6876205 ], [ -94.5154104, 49.687479 ], [ -94.5156282, 49.6873502 ], [ -94.5157498, 49.6872497 ], [ -94.5158161, 49.6871498 ], [ -94.5158509, 49.6869335 ], [ -94.515834, 49.6868348 ], [ -94.5158584, 49.6867265 ], [ -94.5160881, 49.6865346 ], [ -94.5161263, 49.6864262 ], [ -94.5161032, 49.6861296 ], [ -94.5160713, 49.6859951 ], [ -94.5159413, 49.6858259 ], [ -94.5158135, 49.6857286 ], [ -94.5156025, 49.6856325 ], [ -94.5155856, 49.6855337 ], [ -94.5156662, 49.6854517 ], [ -94.5156778, 49.6853796 ], [ -94.515634, 49.6853082 ], [ -94.515537, 49.6853095 ], [ -94.5152884, 49.6853397 ], [ -94.5151623, 49.6852964 ], [ -94.5151187, 49.685234 ], [ -94.5151428, 49.6851168 ], [ -94.5152755, 49.6849261 ], [ -94.5153695, 49.684826 ], [ -94.5154925, 49.6847704 ], [ -94.5156305, 49.6847506 ], [ -94.5157694, 49.6847578 ], [ -94.5159504, 49.6847824 ], [ -94.5162015, 49.6848331 ], [ -94.516354, 49.6848311 ], [ -94.5164626, 49.6847577 ], [ -94.5165152, 49.684667 ], [ -94.5165634, 49.6844325 ], [ -94.5166698, 49.6842872 ], [ -94.5166248, 49.6841799 ], [ -94.5165406, 49.684145 ], [ -94.516497, 49.6840826 ], [ -94.5164762, 49.683858 ], [ -94.5163481, 49.6837517 ], [ -94.5163578, 49.6836167 ], [ -94.5163965, 49.6835262 ], [ -94.5162399, 49.6833933 ], [ -94.5161967, 49.6833399 ], [ -94.51618, 49.6832502 ], [ -94.5163096, 49.6829607 ], [ -94.5163495, 49.6829062 ], [ -94.5164449, 49.6828509 ], [ -94.516829, 49.68272 ], [ -94.5169373, 49.6826376 ], [ -94.5171834, 49.6825264 ], [ -94.5172751, 49.6823543 ], [ -94.517287, 49.6822912 ], [ -94.517341, 49.6822455 ], [ -94.5174635, 49.682172 ], [ -94.517985, 49.6820032 ], [ -94.5180936, 49.6819298 ], [ -94.5183768, 49.6816743 ], [ -94.5189669, 49.6810369 ], [ -94.518939, 49.6809601 ], [ -94.5190018, 49.6808205 ], [ -94.5190264, 49.6807212 ], [ -94.5191907, 49.6806561 ], [ -94.5195925, 49.6806508 ], [ -94.5200618, 49.6805817 ], [ -94.5201916, 49.6805084 ], [ -94.5202989, 49.6804274 ], [ -94.5204045, 49.6803037 ], [ -94.5205856, 49.6800441 ], [ -94.5206388, 49.6799715 ], [ -94.5207887, 49.6798885 ], [ -94.520903, 49.6798297 ], [ -94.5209715, 49.6798041 ], [ -94.5210659, 49.6797802 ], [ -94.5211437, 49.6797309 ], [ -94.5212734, 49.6796593 ], [ -94.5213892, 49.6796174 ], [ -94.5214859, 49.6795735 ], [ -94.5216231, 49.6795268 ], [ -94.5217045, 49.6794717 ], [ -94.5218092, 49.6792725 ], [ -94.5218964, 49.6789565 ], [ -94.5220373, 49.6785858 ], [ -94.5220605, 49.6784416 ], [ -94.5221264, 49.6783328 ], [ -94.5222353, 49.6782684 ], [ -94.5223999, 49.6782123 ], [ -94.5225639, 49.6781381 ], [ -94.5227, 49.6780554 ], [ -94.522944, 49.6778813 ], [ -94.5230818, 49.6778525 ], [ -94.5233869, 49.6778575 ], [ -94.5234157, 49.6778931 ], [ -94.5234468, 49.6780006 ], [ -94.5235059, 49.6781168 ], [ -94.523576, 49.6781428 ], [ -94.5236727, 49.6781326 ], [ -94.523891, 49.6780217 ], [ -94.5242853, 49.6777737 ], [ -94.5244086, 49.6777271 ], [ -94.5245282, 49.6775636 ], [ -94.524554, 49.6775003 ], [ -94.5245947, 49.6774728 ], [ -94.5246906, 49.6774355 ], [ -94.5247895, 49.6774972 ], [ -94.5248336, 49.6775776 ], [ -94.5249043, 49.6776216 ], [ -94.524919, 49.6776484 ], [ -94.525029, 49.67762 ], [ -94.5252499, 49.6775901 ], [ -94.5254006, 49.6775341 ], [ -94.5255646, 49.67746 ], [ -94.5258638, 49.6772761 ], [ -94.5261212, 49.6770839 ], [ -94.5262261, 49.6768936 ], [ -94.5262934, 49.6768297 ], [ -94.5263328, 49.6767572 ], [ -94.5263447, 49.6766941 ], [ -94.5263992, 49.6766664 ], [ -94.5264657, 49.6765756 ], [ -94.5264776, 49.6765125 ], [ -94.5265039, 49.6764671 ], [ -94.526654, 49.6763932 ], [ -94.5267072, 49.6763205 ], [ -94.5268413, 49.6757341 ], [ -94.5268682, 49.6757067 ], [ -94.527035, 49.6757225 ], [ -94.5270755, 49.675686 ], [ -94.5271004, 49.6755957 ], [ -94.527097, 49.6754878 ], [ -94.5270334, 49.6752278 ], [ -94.5269729, 49.6750667 ], [ -94.5269, 49.6749507 ], [ -94.5268844, 49.674897 ], [ -94.5269356, 49.6747614 ], [ -94.5269625, 49.674734 ], [ -94.5269469, 49.6746803 ], [ -94.526904, 49.6746359 ], [ -94.526848, 49.6746186 ], [ -94.5267784, 49.6746105 ], [ -94.5266407, 49.6746393 ], [ -94.5265576, 49.6746404 ], [ -94.5263763, 49.6746068 ], [ -94.526307, 49.6746077 ], [ -94.5260882, 49.6747006 ], [ -94.526005, 49.6747017 ], [ -94.5259075, 49.674685 ], [ -94.5258377, 49.6746679 ], [ -94.5257808, 49.6746237 ], [ -94.5256658, 49.6744903 ], [ -94.5255238, 49.6743842 ], [ -94.5253126, 49.674279 ], [ -94.525102, 49.6741919 ], [ -94.5249207, 49.6741583 ], [ -94.5247415, 49.6741876 ], [ -94.5245472, 49.6741812 ], [ -94.5244627, 49.6741373 ], [ -94.52442, 49.6741019 ], [ -94.5244856, 49.6739841 ], [ -94.5245526, 49.6739113 ], [ -94.5246609, 49.6738289 ], [ -94.5247698, 49.6737645 ], [ -94.5248368, 49.6736916 ], [ -94.5247911, 49.6735573 ], [ -94.5247193, 49.6734773 ], [ -94.5246638, 49.673478 ], [ -94.5245962, 49.6735329 ], [ -94.5245581, 49.6736413 ], [ -94.5244924, 49.6737591 ], [ -94.5244379, 49.6737868 ], [ -94.5243827, 49.6737966 ], [ -94.5241582, 49.6737096 ], [ -94.523701, 49.6737156 ], [ -94.5233323, 49.6738913 ], [ -94.523127, 49.673975 ], [ -94.5229508, 49.6741033 ], [ -94.5227593, 49.6741867 ], [ -94.5225964, 49.6742968 ], [ -94.5224745, 49.6743884 ], [ -94.5223277, 49.6745702 ], [ -94.5222194, 49.6746526 ], [ -94.521877, 49.674783 ], [ -94.5217848, 49.6749371 ], [ -94.5215664, 49.675048 ], [ -94.5213331, 49.675123 ], [ -94.5211835, 49.6752149 ], [ -94.521108, 49.6754588 ], [ -94.5209999, 49.6755501 ], [ -94.520904, 49.6755875 ], [ -94.520837, 49.6756602 ], [ -94.5207137, 49.6757068 ], [ -94.5205195, 49.6757004 ], [ -94.5203119, 49.6757121 ], [ -94.519884, 49.6757717 ], [ -94.519692, 49.6758372 ], [ -94.5195408, 49.6758751 ], [ -94.5194454, 49.6759304 ], [ -94.5193693, 49.6761562 ], [ -94.5192327, 49.676221 ], [ -94.519081, 49.67625 ], [ -94.51871, 49.6763538 ], [ -94.5183014, 49.676584 ], [ -94.5181252, 49.6767123 ], [ -94.5180299, 49.6767675 ], [ -94.5173512, 49.6767854 ], [ -94.5170866, 49.6767439 ], [ -94.5168341, 49.6766482 ], [ -94.5165797, 49.6764896 ], [ -94.5165331, 49.6763283 ], [ -94.5164014, 49.6761052 ], [ -94.5163556, 49.6759709 ], [ -94.5162841, 49.6758998 ], [ -94.5161433, 49.6758297 ], [ -94.5158797, 49.6758242 ], [ -94.5157562, 49.6758618 ], [ -94.5156079, 49.6759987 ], [ -94.5155157, 49.6761528 ], [ -94.5154775, 49.6762612 ], [ -94.51537, 49.6763706 ], [ -94.5152062, 49.6764537 ], [ -94.5150852, 49.6765722 ], [ -94.5150763, 49.6767342 ], [ -94.5151351, 49.6768414 ], [ -94.5154195, 49.6770715 ], [ -94.5155057, 49.6771695 ], [ -94.5155371, 49.6772859 ], [ -94.5154711, 49.6773947 ], [ -94.5151439, 49.6775699 ], [ -94.514805, 49.6778172 ], [ -94.5146978, 49.6779355 ], [ -94.514521, 49.6780458 ], [ -94.5144133, 49.6781461 ], [ -94.5143343, 49.6782821 ], [ -94.5141985, 49.6783738 ], [ -94.5139929, 49.6784485 ], [ -94.5138433, 49.6785404 ], [ -94.5137219, 49.6786499 ], [ -94.5135304, 49.6787334 ], [ -94.5132405, 49.6787731 ], [ -94.5130893, 49.6788111 ], [ -94.5130499, 49.6788836 ], [ -94.5130666, 49.6789733 ], [ -94.5131797, 49.6790438 ], [ -94.5132922, 49.6790963 ], [ -94.513336, 49.6791677 ], [ -94.5131986, 49.6796552 ], [ -94.5131191, 49.6797732 ], [ -94.5130102, 49.6798376 ], [ -94.5128325, 49.6799208 ], [ -94.5125707, 49.6799692 ], [ -94.512461, 49.6800066 ], [ -94.5123363, 49.6800083 ], [ -94.5123473, 49.6799182 ], [ -94.5123321, 49.6798734 ], [ -94.5122342, 49.6798477 ], [ -94.5120682, 49.6798589 ], [ -94.5118382, 49.6800418 ], [ -94.5116603, 49.6801161 ], [ -94.5114816, 49.6801634 ], [ -94.511302, 49.6801837 ], [ -94.5104143, 49.6801683 ], [ -94.5102469, 49.6801345 ], [ -94.5101202, 49.6800732 ], [ -94.5101169, 49.6799653 ], [ -94.5100717, 49.6798489 ], [ -94.5101232, 49.6797223 ], [ -94.5100661, 49.6796691 ], [ -94.5099403, 49.6796348 ], [ -94.509774, 49.6796369 ], [ -94.5095, 49.6797395 ], [ -94.5090305, 49.6797996 ], [ -94.50888, 49.6798645 ], [ -94.5087459, 49.6800102 ], [ -94.5087091, 49.6801636 ], [ -94.5088402, 49.6803687 ], [ -94.5088848, 49.6804671 ], [ -94.50886, 49.6805665 ], [ -94.5087382, 49.6806579 ], [ -94.508642, 49.6806861 ], [ -94.5083203, 49.6805914 ], [ -94.5078993, 49.680426 ], [ -94.5077743, 49.6804186 ], [ -94.5076625, 49.6803931 ], [ -94.507331, 49.6804335 ], [ -94.5072095, 49.6805339 ], [ -94.5071005, 49.6805983 ], [ -94.5069359, 49.6806544 ], [ -94.506674, 49.6807028 ], [ -94.5065507, 49.6807494 ], [ -94.5064011, 49.6808413 ], [ -94.5062927, 49.6809236 ], [ -94.5061827, 49.680952 ], [ -94.5057221, 49.6808501 ], [ -94.505497, 49.6807451 ], [ -94.505161, 49.6806415 ], [ -94.5046753, 49.6806208 ], [ -94.5044544, 49.6806507 ], [ -94.5042216, 49.6807437 ], [ -94.5040858, 49.6808354 ], [ -94.5040193, 49.6809262 ], [ -94.5039542, 49.681062 ], [ -94.5039292, 49.6811522 ], [ -94.5038488, 49.6812432 ], [ -94.5036856, 49.6813443 ], [ -94.5035761, 49.6813907 ], [ -94.5034819, 49.6814819 ], [ -94.5034024, 49.6815998 ], [ -94.5033783, 49.6817171 ], [ -94.5033813, 49.681816 ], [ -94.503261, 49.6819615 ], [ -94.50291, 49.682272 ], [ -94.5025878, 49.6826089 ], [ -94.5024595, 49.6829434 ], [ -94.5023772, 49.6829714 ], [ -94.5021135, 49.6829658 ], [ -94.501865, 49.6829961 ], [ -94.5016593, 49.6830707 ], [ -94.5014831, 49.6831989 ], [ -94.5013198, 49.6833 ], [ -94.5011, 49.6833658 ], [ -94.5006092, 49.683633 ], [ -94.5005282, 49.683706 ], [ -94.5004911, 49.6838504 ], [ -94.5005911, 49.6839481 ], [ -94.500773, 49.6839997 ], [ -94.5008996, 49.684061 ], [ -94.5009853, 49.6841408 ], [ -94.5010748, 49.6843466 ], [ -94.5010512, 49.6844818 ], [ -94.5009561, 49.684546 ], [ -94.5008059, 49.6846199 ], [ -94.5005346, 49.6848123 ], [ -94.5004946, 49.6848668 ], [ -94.500529, 49.6850822 ], [ -94.5006837, 49.6851522 ], [ -94.500878, 49.6851587 ], [ -94.5009899, 49.6851932 ], [ -94.5010434, 49.6855793 ], [ -94.5010343, 49.6857323 ], [ -94.5010836, 49.6859836 ], [ -94.5009755, 49.6860749 ], [ -94.5008247, 49.6861308 ], [ -94.5002471, 49.6862822 ], [ -94.4997868, 49.6865645 ] ] ] } },
{ "type": "Feature", "properties": { "element": "way", "id": 254171939, "name": "Wolf Island", "place": "island", "source": "NRCan-CanVec-10.0", "natural": "wood" }, "geometry": { "type": "Polygon", "coordinates": [ [ [ -94.5284337, 49.672142 ], [ -94.5284209, 49.6721782 ], [ -94.5283517, 49.6721791 ], [ -94.5282818, 49.672162 ], [ -94.5280706, 49.6720569 ], [ -94.5279878, 49.6720669 ], [ -94.5279606, 49.6720853 ], [ -94.5279355, 49.6721666 ], [ -94.5279374, 49.6722295 ], [ -94.5279671, 49.6722921 ], [ -94.5280525, 49.6723629 ], [ -94.5281368, 49.6723978 ], [ -94.528372, 49.6723857 ], [ -94.5287862, 49.6723352 ], [ -94.5290619, 49.6722866 ], [ -94.5291985, 49.6722219 ], [ -94.5292782, 49.6721129 ], [ -94.5293337, 49.6721121 ], [ -94.5293905, 49.6721565 ], [ -94.529406, 49.6722101 ], [ -94.5293961, 49.6723362 ], [ -94.5293571, 49.6724177 ], [ -94.5293175, 49.6724811 ], [ -94.5292499, 49.672536 ], [ -94.5291139, 49.6726188 ], [ -94.5290353, 49.6727637 ], [ -94.5289677, 49.6728186 ], [ -94.528929, 49.672909 ], [ -94.5289454, 49.6729898 ], [ -94.5290285, 49.6729887 ], [ -94.5290969, 49.6729608 ], [ -94.5291659, 49.6729509 ], [ -94.5294648, 49.672758 ], [ -94.5295607, 49.6727208 ], [ -94.5296848, 49.6727012 ], [ -94.5297394, 49.6726735 ], [ -94.5297651, 49.6726102 ], [ -94.5296927, 49.6725122 ], [ -94.5296769, 49.6724495 ], [ -94.5297827, 49.6722861 ], [ -94.5297815, 49.6722501 ], [ -94.529766, 49.6721964 ], [ -94.5296399, 49.6721531 ], [ -94.5296246, 49.6721083 ], [ -94.5296365, 49.6720452 ], [ -94.5297287, 49.671891 ], [ -94.5299719, 49.6716899 ], [ -94.5301353, 49.6715978 ], [ -94.5304333, 49.671378 ], [ -94.5304246, 49.6710993 ], [ -94.5304506, 49.6710449 ], [ -94.5306276, 49.6709437 ], [ -94.5307068, 49.6708167 ], [ -94.5306881, 49.670664 ], [ -94.530659, 49.6706194 ], [ -94.5305595, 49.6705398 ], [ -94.5305154, 49.6704595 ], [ -94.5305558, 49.6704229 ], [ -94.5306519, 49.6703946 ], [ -94.530817, 49.6703565 ], [ -94.5309965, 49.6703361 ], [ -94.5312307, 49.670288 ], [ -94.5314634, 49.670195 ], [ -94.531546, 49.6701759 ], [ -94.5316551, 49.6701205 ], [ -94.531803, 49.6699746 ], [ -94.5319921, 49.6698192 ], [ -94.5321697, 49.6697359 ], [ -94.5324855, 49.6696418 ], [ -94.5325946, 49.6695863 ], [ -94.5326481, 49.6695227 ], [ -94.5327843, 49.6694489 ], [ -94.5328802, 49.6694117 ], [ -94.5329905, 49.6693922 ], [ -94.5332673, 49.6693795 ], [ -94.533615, 49.6694199 ], [ -94.5337671, 49.6694089 ], [ -94.533863, 49.6693717 ], [ -94.5339718, 49.6693072 ], [ -94.5341222, 49.6692423 ], [ -94.5348508, 49.6690527 ], [ -94.5351952, 49.6689852 ], [ -94.5354423, 49.66891 ], [ -94.5355113, 49.6689 ], [ -94.5357742, 49.6688876 ], [ -94.5358163, 49.668905 ], [ -94.5358449, 49.6689316 ], [ -94.5358746, 49.6689942 ], [ -94.535932, 49.6690565 ], [ -94.5359334, 49.6691013 ], [ -94.5358805, 49.669183 ], [ -94.5358817, 49.669219 ], [ -94.5359102, 49.6692456 ], [ -94.5360083, 49.6692802 ], [ -94.5360369, 49.6693068 ], [ -94.536026, 49.669406 ], [ -94.5356069, 49.6697353 ], [ -94.5355269, 49.6698353 ], [ -94.5353948, 49.670044 ], [ -94.5353058, 49.670297 ], [ -94.5352526, 49.6703697 ], [ -94.5351723, 49.6704607 ], [ -94.5350912, 49.6705247 ], [ -94.5347635, 49.670682 ], [ -94.5346821, 49.6707371 ], [ -94.5345611, 49.6708556 ], [ -94.5344392, 49.6709472 ], [ -94.5343705, 49.6709661 ], [ -94.5341084, 49.6710055 ], [ -94.5340264, 49.6710426 ], [ -94.5339184, 49.671134 ], [ -94.5337708, 49.6712888 ], [ -94.5337191, 49.6714065 ], [ -94.5337208, 49.6714604 ], [ -94.533749, 49.671478 ], [ -94.5338189, 49.6714951 ], [ -94.533916, 49.6715028 ], [ -94.5341918, 49.6714542 ], [ -94.5343292, 49.6714164 ], [ -94.5343971, 49.6713705 ], [ -94.5344231, 49.6713162 ], [ -94.5344709, 49.6710727 ], [ -94.5346597, 49.6709083 ], [ -94.5347689, 49.6708528 ], [ -94.5350983, 49.6707495 ], [ -94.5353188, 49.6707106 ], [ -94.5354138, 49.6706464 ], [ -94.5355504, 49.6705816 ], [ -94.535811, 49.6704972 ], [ -94.5359629, 49.6704772 ], [ -94.5362097, 49.670393 ], [ -94.53651, 49.6702451 ], [ -94.5366185, 49.6701717 ], [ -94.5367661, 49.6700168 ], [ -94.5368345, 49.6699889 ], [ -94.537083, 49.6699586 ], [ -94.5373047, 49.6699557 ], [ -94.5375131, 49.6699709 ], [ -94.5376649, 49.6699509 ], [ -94.5377608, 49.6699136 ], [ -94.5378806, 49.6697591 ], [ -94.5379852, 49.6695598 ], [ -94.5380101, 49.6694695 ], [ -94.5380887, 49.6693246 ], [ -94.5381947, 49.6691702 ], [ -94.5385585, 49.6688416 ], [ -94.5386671, 49.6687682 ], [ -94.5387765, 49.6687218 ], [ -94.5388998, 49.6686751 ], [ -94.5391059, 49.6686184 ], [ -94.539189, 49.6686173 ], [ -94.5393405, 49.6685883 ], [ -94.5394515, 49.6685958 ], [ -94.5395355, 49.6686217 ], [ -94.5396066, 49.6686747 ], [ -94.5397369, 49.6688529 ], [ -94.5398073, 49.6688879 ], [ -94.53985, 49.6689234 ], [ -94.5398783, 49.668941 ], [ -94.5400313, 49.6689569 ], [ -94.540128, 49.6689466 ], [ -94.5406499, 49.6687958 ], [ -94.5413221, 49.6685799 ], [ -94.541391, 49.66857 ], [ -94.5414607, 49.6685781 ], [ -94.5415167, 49.6685953 ], [ -94.5415334, 49.6686851 ], [ -94.5414525, 49.6687581 ], [ -94.541042, 49.6689255 ], [ -94.5407415, 49.6690644 ], [ -94.5407014, 49.6691099 ], [ -94.5406542, 49.6693714 ], [ -94.5405883, 49.6694802 ], [ -94.5405475, 49.6695078 ], [ -94.5402315, 49.6695929 ], [ -94.540136, 49.6696392 ], [ -94.5400407, 49.6696944 ], [ -94.5398923, 49.6698223 ], [ -94.5398391, 49.669895 ], [ -94.5397877, 49.6700216 ], [ -94.5397767, 49.6701117 ], [ -94.5398214, 49.67021 ], [ -94.5398089, 49.6702552 ], [ -94.5397549, 49.6703009 ], [ -94.53944, 49.670422 ], [ -94.539386, 49.6704677 ], [ -94.5393597, 49.670513 ], [ -94.5393605, 49.67054 ], [ -94.5394185, 49.6706202 ], [ -94.5394324, 49.67062 ], [ -94.5394768, 49.6707094 ], [ -94.5394918, 49.6707451 ], [ -94.5394802, 49.6708173 ], [ -94.5392602, 49.6708742 ], [ -94.5391562, 49.6710914 ], [ -94.5390618, 49.6711736 ], [ -94.5388449, 49.6713294 ], [ -94.5387646, 49.6714204 ], [ -94.5387123, 49.6715201 ], [ -94.5387027, 49.6716551 ], [ -94.5387327, 49.6717267 ], [ -94.5388458, 49.6717972 ], [ -94.5389581, 49.6718406 ], [ -94.5390036, 49.671966 ], [ -94.5389236, 49.672066 ], [ -94.5388416, 49.6721031 ], [ -94.5387752, 49.672194 ], [ -94.5387633, 49.672257 ], [ -94.5387927, 49.6723106 ], [ -94.538849, 49.6723368 ], [ -94.5388776, 49.6723634 ], [ -94.5388515, 49.6724178 ], [ -94.5386873, 49.6724829 ], [ -94.5384659, 49.6724948 ], [ -94.5381764, 49.6725437 ], [ -94.5380672, 49.6725991 ], [ -94.5379725, 49.6726723 ], [ -94.5378772, 49.6727275 ], [ -94.537493, 49.6728496 ], [ -94.5373725, 49.6729861 ], [ -94.537304, 49.673014 ], [ -94.5372215, 49.6730331 ], [ -94.5368475, 49.6730381 ], [ -94.536408, 49.6731698 ], [ -94.5363397, 49.6731977 ], [ -94.5362314, 49.6732801 ], [ -94.5361222, 49.6733355 ], [ -94.5360826, 49.673399 ], [ -94.5360976, 49.6734348 ], [ -94.5362783, 49.6734504 ], [ -94.5362933, 49.6734862 ], [ -94.5362266, 49.673568 ], [ -94.536256, 49.6736216 ], [ -94.536353, 49.6736203 ], [ -94.5364217, 49.6736014 ], [ -94.5365738, 49.6735904 ], [ -94.5367385, 49.6735432 ], [ -94.5367808, 49.6735607 ], [ -94.5367689, 49.6736238 ], [ -94.5367288, 49.6736693 ], [ -94.5367166, 49.6737234 ], [ -94.5367599, 49.6737768 ], [ -94.5368438, 49.6738027 ], [ -94.5370689, 49.6739076 ], [ -94.5373667, 49.6741196 ], [ -94.5376185, 49.6741972 ], [ -94.5377857, 49.6742219 ], [ -94.5380911, 49.6742359 ], [ -94.5385752, 49.6742025 ], [ -94.5390997, 49.6741325 ], [ -94.5396228, 49.6740176 ], [ -94.5399796, 49.6739049 ], [ -94.5401572, 49.6738216 ], [ -94.5402925, 49.673721 ], [ -94.5403729, 49.6736298 ], [ -94.5404116, 49.6735394 ], [ -94.5404654, 49.6734847 ], [ -94.5407285, 49.6734812 ], [ -94.5408524, 49.6734526 ], [ -94.5411697, 49.6734034 ], [ -94.5413071, 49.6733655 ], [ -94.5416215, 49.6732264 ], [ -94.5417439, 49.6731528 ], [ -94.5421762, 49.6727963 ], [ -94.5424626, 49.6726485 ], [ -94.5427365, 49.6725459 ], [ -94.542874, 49.6725081 ], [ -94.5431625, 49.6724323 ], [ -94.543507, 49.6723648 ], [ -94.5436718, 49.6723176 ], [ -94.5438909, 49.6722337 ], [ -94.5440685, 49.6721504 ], [ -94.5445728, 49.6718828 ], [ -94.5447374, 49.6718266 ], [ -94.5448889, 49.6717976 ], [ -94.5452769, 49.6717924 ], [ -94.54547, 49.6717629 ], [ -94.5455947, 49.6717612 ], [ -94.5458975, 49.6716942 ], [ -94.5460495, 49.6716832 ], [ -94.546295, 49.671554 ], [ -94.5467018, 49.6712697 ], [ -94.5468516, 49.6711867 ], [ -94.5471671, 49.6710836 ], [ -94.5478275, 49.6709308 ], [ -94.5483757, 49.6707346 ], [ -94.5485668, 49.6706421 ], [ -94.5487862, 49.6705672 ], [ -94.5491401, 49.6703645 ], [ -94.5492215, 49.6703095 ], [ -94.5493965, 49.6701452 ], [ -94.5501173, 49.6697128 ], [ -94.5505512, 49.6694102 ], [ -94.5506315, 49.6693191 ], [ -94.550697, 49.6692013 ], [ -94.5509358, 49.6688653 ], [ -94.5510296, 49.6687651 ], [ -94.5511514, 49.6686735 ], [ -94.5514375, 49.6685168 ], [ -94.5516269, 49.6683703 ], [ -94.5517221, 49.6683151 ], [ -94.5519268, 49.6682134 ], [ -94.5520919, 49.6681752 ], [ -94.552286, 49.6681816 ], [ -94.5524252, 49.6681977 ], [ -94.5526469, 49.6681947 ], [ -94.5527444, 49.6682114 ], [ -94.5528553, 49.6682099 ], [ -94.5529652, 49.6681814 ], [ -94.5531275, 49.6680533 ], [ -94.5532337, 49.667908 ], [ -94.5534083, 49.6677347 ], [ -94.5536664, 49.6675694 ], [ -94.5542137, 49.6673461 ], [ -94.5547084, 49.6672136 ], [ -94.5551061, 49.6670823 ], [ -94.555298, 49.6670167 ], [ -94.5555982, 49.6668688 ], [ -94.5557353, 49.666822 ], [ -94.5560378, 49.6667459 ], [ -94.5562568, 49.666662 ], [ -94.5564063, 49.6665701 ], [ -94.556499, 49.6664339 ], [ -94.5566696, 49.6661348 ], [ -94.5567069, 49.6659993 ], [ -94.5567747, 49.6659534 ], [ -94.5568847, 49.665925 ], [ -94.557009, 49.6659143 ], [ -94.5571603, 49.6658763 ], [ -94.5572982, 49.6658565 ], [ -94.5573795, 49.6658015 ], [ -94.5573923, 49.6657652 ], [ -94.5573776, 49.6657384 ], [ -94.5572928, 49.6656856 ], [ -94.5571672, 49.6656603 ], [ -94.5571387, 49.6656337 ], [ -94.5571228, 49.665571 ], [ -94.5571338, 49.665481 ], [ -94.5571855, 49.6653632 ], [ -94.5572674, 49.6653261 ], [ -94.5573644, 49.6653248 ], [ -94.5574608, 49.6653056 ], [ -94.5576118, 49.6652586 ], [ -94.5576663, 49.6652308 ], [ -94.5577061, 49.6651763 ], [ -94.5577437, 49.66505 ], [ -94.5579042, 49.6648678 ], [ -94.5581766, 49.6647202 ], [ -94.558273, 49.6647009 ], [ -94.5589313, 49.6644852 ], [ -94.5591091, 49.6644108 ], [ -94.5597942, 49.6641677 ], [ -94.5601068, 49.6639746 ], [ -94.5604147, 49.6636376 ], [ -94.5604678, 49.663565 ], [ -94.5605187, 49.6634205 ], [ -94.5604869, 49.663295 ], [ -94.5604575, 49.6632413 ], [ -94.5604286, 49.6632057 ], [ -94.5603438, 49.6631529 ], [ -94.5602852, 49.6630547 ], [ -94.5602549, 49.6629742 ], [ -94.5602668, 49.662911 ], [ -94.560293, 49.6628657 ], [ -94.5606194, 49.6626724 ], [ -94.5611383, 49.6624315 ], [ -94.5612062, 49.6623856 ], [ -94.5613164, 49.6623662 ], [ -94.5613294, 49.662339 ], [ -94.5613141, 49.6622942 ], [ -94.5611453, 49.6622156 ], [ -94.5611438, 49.6621706 ], [ -94.5611828, 49.6620891 ], [ -94.5612229, 49.6620436 ], [ -94.5613046, 49.6619975 ], [ -94.5613173, 49.6619615 ], [ -94.5612602, 49.6619082 ], [ -94.5611629, 49.6619005 ], [ -94.56108, 49.6619106 ], [ -94.5607632, 49.6619688 ], [ -94.5606527, 49.6619793 ], [ -94.5605705, 49.6620074 ], [ -94.560446, 49.6620181 ], [ -94.5602386, 49.6620299 ], [ -94.5599327, 49.661998 ], [ -94.5597096, 49.6619561 ], [ -94.5594857, 49.6618871 ], [ -94.5593022, 49.6617816 ], [ -94.5592029, 49.661711 ], [ -94.5588785, 49.6615355 ], [ -94.5588091, 49.6615274 ], [ -94.5586714, 49.6615563 ], [ -94.5585072, 49.6616214 ], [ -94.5582325, 49.6616971 ], [ -94.5579967, 49.6616913 ], [ -94.5576065, 49.6616246 ], [ -94.5574813, 49.6616083 ], [ -94.5573982, 49.6616094 ], [ -94.5573163, 49.6616465 ], [ -94.5571532, 49.6617476 ], [ -94.5569757, 49.661831 ], [ -94.5567555, 49.6618789 ], [ -94.5565073, 49.6619182 ], [ -94.5563685, 49.6619111 ], [ -94.556036, 49.6619156 ], [ -94.5558557, 49.661909 ], [ -94.5554659, 49.6618513 ], [ -94.5553101, 49.6617454 ], [ -94.5551817, 49.6616302 ], [ -94.5548718, 49.6614724 ], [ -94.5545388, 49.6614589 ], [ -94.5540265, 49.6614748 ], [ -94.5538177, 49.6614416 ], [ -94.5537475, 49.6614156 ], [ -94.553691, 49.6613804 ], [ -94.5536876, 49.6612725 ], [ -94.5537003, 49.6612363 ], [ -94.5537537, 49.6611726 ], [ -94.5537517, 49.6611097 ], [ -94.5537205, 49.6610022 ], [ -94.5536917, 49.6609666 ], [ -94.5534395, 49.66088 ], [ -94.553174, 49.6608116 ], [ -94.5531163, 49.6607404 ], [ -94.5531555, 49.660668 ], [ -94.5532907, 49.6605582 ], [ -94.5533022, 49.6604861 ], [ -94.5532962, 49.6602972 ], [ -94.5532662, 49.6602257 ], [ -94.5531964, 49.6602086 ], [ -94.5530587, 49.6602375 ], [ -94.5529087, 49.6603114 ], [ -94.5527023, 49.6603592 ], [ -94.5525367, 49.6603794 ], [ -94.55226, 49.6603921 ], [ -94.551927, 49.6603786 ], [ -94.5518311, 49.6604158 ], [ -94.5517777, 49.6604795 ], [ -94.551793, 49.6605243 ], [ -94.5518643, 49.6605863 ], [ -94.5518923, 49.6605949 ], [ -94.5519632, 49.660648 ], [ -94.5519658, 49.6607289 ], [ -94.5519136, 49.6608285 ], [ -94.5517909, 49.6608931 ], [ -94.5515973, 49.6609047 ], [ -94.551235, 49.6608466 ], [ -94.5507902, 49.6607986 ], [ -94.5504993, 49.6608025 ], [ -94.5501513, 49.6607532 ], [ -94.5498299, 49.6606675 ], [ -94.5497323, 49.6606509 ], [ -94.5496622, 49.6606248 ], [ -94.549067, 49.66021 ], [ -94.5488573, 49.6601498 ], [ -94.5488287, 49.6601232 ], [ -94.5488134, 49.6600785 ], [ -94.5488371, 49.6599522 ], [ -94.5488773, 49.6599067 ], [ -94.5489454, 49.6598698 ], [ -94.5490124, 49.659797 ], [ -94.5490251, 49.6597608 ], [ -94.5489959, 49.6597162 ], [ -94.5489402, 49.659708 ], [ -94.5483725, 49.6597246 ], [ -94.5482893, 49.6597167 ], [ -94.5482191, 49.6596906 ], [ -94.5481906, 49.659664 ], [ -94.5481318, 49.6595569 ], [ -94.5480599, 49.6594769 ], [ -94.5479774, 49.659496 ], [ -94.5478974, 49.659596 ], [ -94.5478567, 49.6596235 ], [ -94.5477731, 49.6596066 ], [ -94.5476724, 49.6594911 ], [ -94.5476158, 49.6594558 ], [ -94.5475463, 49.6594478 ], [ -94.5474923, 49.6594935 ], [ -94.5474438, 49.65971 ], [ -94.5474175, 49.6597553 ], [ -94.5473632, 49.659792 ], [ -94.547281, 49.6598201 ], [ -94.5469367, 49.6598877 ], [ -94.5467044, 49.6599897 ], [ -94.5466227, 49.6600358 ], [ -94.5465687, 49.6600815 ], [ -94.5464723, 49.6601008 ], [ -94.5462781, 49.6600944 ], [ -94.5460155, 49.6601159 ], [ -94.5458504, 49.6601541 ], [ -94.5457555, 49.6602183 ], [ -94.5457159, 49.6602818 ], [ -94.5456795, 49.6604442 ], [ -94.5456538, 49.6605075 ], [ -94.5456004, 49.6605712 ], [ -94.5454082, 49.6606277 ], [ -94.5452979, 49.6606472 ], [ -94.545216, 49.6606843 ], [ -94.5451493, 49.6607661 ], [ -94.5450848, 49.6609199 ], [ -94.5450052, 49.6610289 ], [ -94.5447101, 49.6613387 ], [ -94.5446556, 49.6613664 ], [ -94.5445592, 49.6613856 ], [ -94.5444758, 49.6613778 ], [ -94.5442767, 49.6612185 ], [ -94.5442207, 49.6612013 ], [ -94.5441376, 49.6612024 ], [ -94.5440692, 49.6612303 ], [ -94.5439494, 49.6613848 ], [ -94.5439101, 49.6614573 ], [ -94.5439121, 49.6615202 ], [ -94.5439958, 49.6615371 ], [ -94.5440922, 49.6615178 ], [ -94.5441323, 49.6614723 ], [ -94.5441733, 49.6614538 ], [ -94.54427, 49.6614435 ], [ -94.5443121, 49.6614609 ], [ -94.5443201, 49.6617127 ], [ -94.5441358, 49.662021 ], [ -94.5440394, 49.6620402 ], [ -94.543818, 49.6620522 ], [ -94.5436931, 49.6620449 ], [ -94.5435563, 49.6621006 ], [ -94.5429597, 49.6625134 ], [ -94.5428941, 49.6626312 ], [ -94.542854, 49.6626767 ], [ -94.5427457, 49.6627591 ], [ -94.5426363, 49.6628055 ], [ -94.5425264, 49.662834 ], [ -94.542333, 49.6628546 ], [ -94.5421269, 49.6629113 ], [ -94.5418926, 49.6629504 ], [ -94.5416875, 49.6630431 ], [ -94.541466, 49.663046 ], [ -94.5413558, 49.6630655 ], [ -94.5411918, 49.6631396 ], [ -94.5410957, 49.6631679 ], [ -94.5410129, 49.663178 ], [ -94.5408876, 49.6631617 ], [ -94.5407895, 49.663127 ], [ -94.5405764, 49.6629589 ], [ -94.5405068, 49.6629508 ], [ -94.5402595, 49.6630171 ], [ -94.5400647, 49.6629927 ], [ -94.5399654, 49.6629221 ], [ -94.539839, 49.6628698 ], [ -94.5397698, 49.6628707 ], [ -94.5395767, 49.6629002 ], [ -94.5395072, 49.6628922 ], [ -94.5394368, 49.6628571 ], [ -94.5393656, 49.6627951 ], [ -94.5392926, 49.6626791 ], [ -94.5391368, 49.6625733 ], [ -94.5390939, 49.6625289 ], [ -94.5389816, 49.6624854 ], [ -94.5387453, 49.6624615 ], [ -94.5385932, 49.6624726 ], [ -94.5383868, 49.6625203 ], [ -94.538056, 49.6625787 ], [ -94.5378916, 49.6626348 ], [ -94.5378373, 49.6626715 ], [ -94.5377584, 49.6628075 ], [ -94.53743, 49.6629378 ], [ -94.5373486, 49.6629928 ], [ -94.5371849, 49.663076 ], [ -94.5369658, 49.6631598 ], [ -94.5369392, 49.6631962 ], [ -94.5369285, 49.6632953 ], [ -94.5367917, 49.663351 ], [ -94.5367648, 49.6633785 ], [ -94.5367538, 49.6634685 ], [ -94.5367004, 49.6635322 ], [ -94.5365104, 49.6636606 ], [ -94.5360457, 49.6638647 ], [ -94.5359368, 49.6639291 ], [ -94.5356657, 49.6641216 ], [ -94.5355837, 49.6641586 ], [ -94.5354887, 49.6642229 ], [ -94.5353952, 49.6643321 ], [ -94.5353972, 49.664395 ], [ -94.5353587, 49.6644945 ], [ -94.5352917, 49.6645673 ], [ -94.5349539, 49.6648416 ], [ -94.5348035, 49.6649066 ], [ -94.5347224, 49.6649706 ], [ -94.5346424, 49.6650706 ], [ -94.5346169, 49.665143 ], [ -94.534607, 49.665269 ], [ -94.534568, 49.6653505 ], [ -94.5345279, 49.665396 ], [ -94.5344055, 49.6654696 ], [ -94.5343404, 49.6656054 ], [ -94.5342175, 49.665661 ], [ -94.5341366, 49.665734 ], [ -94.5341109, 49.6657973 ], [ -94.534101, 49.6659234 ], [ -94.5339661, 49.6660421 ], [ -94.5338867, 49.6661601 ], [ -94.5338932, 49.6663669 ], [ -94.5338666, 49.6664032 ], [ -94.5335835, 49.6666588 ], [ -94.5334601, 49.6666964 ], [ -94.5332424, 49.6668253 ], [ -94.5328856, 49.6669379 ], [ -94.5326125, 49.6670675 ], [ -94.5324892, 49.6671141 ], [ -94.5323258, 49.6672062 ], [ -94.5320779, 49.6672545 ], [ -94.531982, 49.6672917 ], [ -94.5319003, 49.6673378 ], [ -94.5318327, 49.6673926 ], [ -94.5317931, 49.6674561 ], [ -94.5316719, 49.6675657 ], [ -94.5316323, 49.6676292 ], [ -94.531578, 49.6676659 ], [ -94.5314674, 49.6676763 ], [ -94.5310216, 49.6676013 ], [ -94.5309215, 49.6675036 ], [ -94.530902, 49.667324 ], [ -94.5308726, 49.6672704 ], [ -94.5308445, 49.6672618 ], [ -94.5307621, 49.6672809 ], [ -94.5306527, 49.6673273 ], [ -94.5305859, 49.6674091 ], [ -94.5303685, 49.6675469 ], [ -94.5303, 49.6675748 ], [ -94.5300654, 49.6676049 ], [ -94.5300244, 49.6676234 ], [ -94.529984, 49.6676599 ], [ -94.5299597, 49.6677682 ], [ -94.5298924, 49.6678321 ], [ -94.52981, 49.6678601 ], [ -94.5295198, 49.667882 ], [ -94.5294655, 49.6679187 ], [ -94.529388, 49.6680996 ], [ -94.5293611, 49.6681269 ], [ -94.529279, 49.668164 ], [ -94.5290179, 49.6682304 ], [ -94.5288816, 49.6683042 ], [ -94.52887, 49.6683763 ], [ -94.5288041, 49.6684851 ], [ -94.52875, 49.6685308 ], [ -94.528599, 49.6685778 ], [ -94.5282958, 49.6686267 ], [ -94.5281996, 49.668655 ], [ -94.5280252, 49.6688372 ], [ -94.5277814, 49.6690203 ], [ -94.5276322, 49.6691212 ], [ -94.5273596, 49.6692688 ], [ -94.527197, 49.6693878 ], [ -94.5270474, 49.6694798 ], [ -94.5267064, 49.6696552 ], [ -94.5264186, 49.6697579 ], [ -94.5262554, 49.669859 ], [ -94.5261189, 49.6699238 ], [ -94.5258194, 49.6700986 ], [ -94.5256693, 49.6701726 ], [ -94.5254532, 49.6703553 ], [ -94.5253463, 49.6704827 ], [ -94.5251962, 49.6705566 ], [ -94.5251563, 49.6706111 ], [ -94.5251713, 49.6706469 ], [ -94.5252561, 49.6706997 ], [ -94.525409, 49.6707157 ], [ -94.5256986, 49.6706669 ], [ -94.5257955, 49.6706656 ], [ -94.5259055, 49.6706372 ], [ -94.5262966, 49.6702902 ], [ -94.5263789, 49.6702622 ], [ -94.5265424, 49.6701701 ], [ -94.5267041, 49.670024 ], [ -94.5268667, 49.6699049 ], [ -94.5269625, 49.6698677 ], [ -94.5270723, 49.6698302 ], [ -94.5272512, 49.6697919 ], [ -94.5273615, 49.6697725 ], [ -94.5275275, 49.6697613 ], [ -94.5276109, 49.6697692 ], [ -94.5278359, 49.6698741 ], [ -94.527919, 49.669873 ], [ -94.528029, 49.6698446 ], [ -94.5282617, 49.6697516 ], [ -94.5283717, 49.6697231 ], [ -94.5284684, 49.6697129 ], [ -94.5285518, 49.6697208 ], [ -94.5286643, 49.6697732 ], [ -94.5288354, 49.6699239 ], [ -94.5288653, 49.6699955 ], [ -94.5287884, 49.6701945 ], [ -94.5288048, 49.6702751 ], [ -94.5290279, 49.6703171 ], [ -94.5290847, 49.6703615 ], [ -94.5290858, 49.6703973 ], [ -94.5290327, 49.67047 ], [ -94.5287861, 49.6705632 ], [ -94.528746, 49.6706087 ], [ -94.5287471, 49.6706447 ], [ -94.5288036, 49.6706799 ], [ -94.5289148, 49.6706874 ], [ -94.529232, 49.6706383 ], [ -94.529757, 49.6705864 ], [ -94.5297703, 49.6705682 ], [ -94.5298662, 49.6705309 ], [ -94.5300452, 49.6704926 ], [ -94.5301283, 49.6704915 ], [ -94.5303508, 49.6705155 ], [ -94.5304353, 49.6705595 ], [ -94.5304517, 49.6706401 ], [ -94.5304031, 49.6708567 ], [ -94.5303771, 49.670911 ], [ -94.5303225, 49.6709387 ], [ -94.5298138, 49.6710713 ], [ -94.529401, 49.6711668 ], [ -94.5293043, 49.671177 ], [ -94.5291121, 49.6712335 ], [ -94.5290578, 49.6712702 ], [ -94.528991, 49.6713521 ], [ -94.5289664, 49.6714513 ], [ -94.5289138, 49.671542 ], [ -94.5288058, 49.6716334 ], [ -94.5286554, 49.6716983 ], [ -94.528463, 49.6717548 ], [ -94.528381, 49.671792 ], [ -94.5283545, 49.6718282 ], [ -94.5283432, 49.6719093 ], [ -94.5284026, 49.6720345 ], [ -94.5284337, 49.672142 ] ] ] } }
]
}
